{
"type": "FeatureCollection",
"name": "ride",
"crs": { "type": "name", "properties": { "name": "urn:ogc:def:crs:OGC:1.3:CRS84" } },
"features": [
{ "type": "Feature", "properties": { "name": "Morning Ride", "type": "cycling" }, "geometry": { "type": "MultiLineString", "coordinates": [ [ [ 149.071134, -35.420506, 575.0 ], [ 149.071116, -35.420477, 575.0 ], [ 149.071093, -35.420451, 575.0 ], [ 149.071044, -35.420394, 575.0 ], [ 149.070984, -35.420302, 574.8 ], [ 149.070822, -35.420067, 574.0 ], [ 149.070703, -35.419902, 574.8 ], [ 149.070648, -35.419832, 575.0 ], [ 149.070413, -35.419526, 574.8 ], [ 149.07037, -35.419465, 574.8 ], [ 149.070324, -35.419395, 574.8 ], [ 149.070233, -35.419348, 574.8 ], [ 149.070185, -35.419348, 575.0 ], [ 149.069995, -35.419402, 575.4 ], [ 149.069778, -35.419508, 575.6 ], [ 149.06972, -35.419528, 575.6 ], [ 149.069508, -35.419601, 575.8 ], [ 149.069461, -35.419625, 575.6 ], [ 149.069361, -35.419661, 575.6 ], [ 149.069256, -35.419709, 575.4 ], [ 149.068938, -35.419862, 575.6 ], [ 149.06878, -35.419942, 575.4 ], [ 149.068729, -35.419972, 575.2 ], [ 149.068628, -35.420028, 575.2 ], [ 149.068426, -35.420135, 575.6 ], [ 149.068281, -35.420213, 576.0 ], [ 149.068184, -35.420264, 576.4 ], [ 149.068044, -35.420333, 576.8 ], [ 149.067898, -35.420405, 577.0 ], [ 149.067849, -35.420431, 577.0 ], [ 149.067453, -35.420627, 578.2 ], [ 149.067359, -35.420675, 578.4 ], [ 149.067129, -35.420796, 579.2 ], [ 149.066861, -35.420932, 580.2 ], [ 149.066819, -35.420954, 580.4 ], [ 149.066559, -35.421092, 581.4 ], [ 149.066514, -35.421101, 581.6 ], [ 149.066428, -35.421115, 582.4 ], [ 149.066418, -35.421116, 582.6 ], [ 149.066301, -35.421108, 583.0 ], [ 149.06622, -35.421053, 582.4 ], [ 149.066157, -35.420973, 581.8 ], [ 149.066123, -35.420929, 581.4 ], [ 149.065887, -35.420625, 581.8 ], [ 149.065846, -35.42058, 581.8 ], [ 149.065547, -35.420235, 582.4 ], [ 149.06548, -35.42015, 582.4 ], [ 149.065395, -35.420015, 582.4 ], [ 149.065318, -35.419942, 582.6 ], [ 149.065269, -35.419913, 582.6 ], [ 149.06523, -35.419875, 582.4 ], [ 149.065153, -35.419754, 582.2 ], [ 149.064969, -35.419502, 582.8 ], [ 149.06489, -35.419411, 584.0 ], [ 149.064847, -35.419362, 585.4 ], [ 149.06473, -35.419218, 589.4 ], [ 149.064663, -35.419129, 588.6 ], [ 149.064631, -35.419085, 586.0 ], [ 149.064568, -35.419002, 584.0 ], [ 149.064413, -35.4188, 584.2 ], [ 149.064126, -35.418428, 583.8 ], [ 149.063899, -35.418127, 583.4 ], [ 149.063826, -35.418024, 583.4 ], [ 149.063516, -35.417618, 583.4 ], [ 149.063223, -35.417235, 583.0 ], [ 149.06318, -35.41718, 583.0 ], [ 149.062882, -35.416794, 582.2 ], [ 149.062849, -35.416739, 582.4 ], [ 149.062805, -35.416643, 582.8 ], [ 149.062805, -35.416613, 583.8 ], [ 149.062772, -35.416562, 584.2 ], [ 149.062714, -35.416507, 584.0 ], [ 149.062635, -35.416437, 583.8 ], [ 149.062594, -35.416351, 582.8 ], [ 149.062376, -35.416056, 582.0 ], [ 149.062305, -35.415943, 581.6 ], [ 149.062264, -35.41589, 581.4 ], [ 149.062134, -35.415732, 581.2 ], [ 149.061874, -35.415324, 580.6 ], [ 149.06181, -35.415201, 580.2 ], [ 149.06166, -35.414883, 579.4 ], [ 149.061492, -35.414404, 578.8 ], [ 149.061439, -35.41419, 578.2 ], [ 149.061378, -35.413828, 577.4 ], [ 149.06137, -35.413755, 577.2 ], [ 149.061339, -35.413224, 576.4 ], [ 149.061343, -35.412993, 576.0 ], [ 149.061344, -35.412833, 575.8 ], [ 149.061384, -35.412276, 575.4 ], [ 149.061423, -35.412033, 575.0 ], [ 149.061493, -35.411716, 574.0 ], [ 149.061509, -35.41164, 574.0 ], [ 149.061671, -35.411096, 573.6 ], [ 149.061731, -35.410936, 573.2 ], [ 149.061788, -35.410781, 572.6 ], [ 149.062015, -35.410244, 572.4 ], [ 149.062282, -35.40974, 572.4 ], [ 149.062368, -35.409599, 572.2 ], [ 149.0625, -35.409391, 571.4 ], [ 149.06285, -35.40885, 571.6 ], [ 149.063071, -35.408474, 572.2 ], [ 149.063199, -35.408228, 572.4 ], [ 149.063353, -35.407923, 572.8 ], [ 149.063517, -35.407572, 573.6 ], [ 149.063564, -35.40746, 574.0 ], [ 149.063738, -35.40707, 574.8 ], [ 149.063825, -35.406847, 575.2 ], [ 149.063967, -35.406458, 575.2 ], [ 149.064011, -35.406289, 575.6 ], [ 149.064041, -35.406177, 576.0 ], [ 149.064116, -35.405901, 577.0 ], [ 149.064158, -35.405736, 577.8 ], [ 149.064169, -35.405685, 578.2 ], [ 149.064247, -35.405329, 579.2 ], [ 149.064267, -35.405226, 579.2 ], [ 149.064299, -35.405066, 579.2 ], [ 149.06438, -35.404617, 578.8 ], [ 149.06439, -35.404558, 579.0 ], [ 149.064416, -35.404197, 579.4 ], [ 149.064411, -35.404068, 579.0 ], [ 149.06445, -35.403698, 578.8 ], [ 149.064443, -35.403649, 579.0 ], [ 149.064428, -35.403562, 579.2 ], [ 149.06449, -35.403496, 579.4 ], [ 149.064536, -35.403417, 579.4 ], [ 149.064551, -35.403371, 579.4 ], [ 149.064562, -35.403276, 579.2 ], [ 149.064549, -35.403175, 579.0 ], [ 149.064609, -35.403016, 578.6 ], [ 149.064633, -35.402898, 578.2 ], [ 149.064716, -35.402589, 577.8 ], [ 149.064824, -35.402271, 577.2 ], [ 149.064873, -35.402139, 576.8 ], [ 149.065071, -35.401662, 576.2 ], [ 149.065235, -35.401327, 576.2 ], [ 149.065267, -35.401261, 576.0 ], [ 149.065331, -35.401132, 576.0 ], [ 149.06562, -35.400627, 575.6 ], [ 149.065662, -35.400564, 575.8 ], [ 149.065865, -35.400255, 575.0 ], [ 149.065949, -35.400134, 575.0 ], [ 149.066327, -35.399663, 574.8 ], [ 149.066714, -35.399229, 575.2 ], [ 149.067054, -35.398894, 575.4 ], [ 149.06735, -35.398627, 576.0 ], [ 149.067402, -35.398582, 576.0 ], [ 149.067763, -35.398286, 576.6 ], [ 149.06797, -35.398126, 577.2 ], [ 149.068205, -35.397933, 577.4 ], [ 149.068238, -35.397878, 577.4 ], [ 149.068394, -35.397623, 575.8 ], [ 149.068442, -35.397549, 575.0 ], [ 149.068492, -35.397479, 574.4 ], [ 149.068582, -35.397341, 573.8 ], [ 149.06861, -35.397198, 573.8 ], [ 149.068581, -35.396874, 574.8 ], [ 149.068475, -35.396464, 572.0 ], [ 149.068457, -35.396411, 573.0 ], [ 149.06842, -35.396304, 574.6 ], [ 149.068396, -35.396201, 576.6 ], [ 149.068364, -35.396102, 577.6 ], [ 149.068336, -35.396006, 579.0 ], [ 149.068293, -35.395914, 580.8 ], [ 149.068207, -35.395771, 581.4 ], [ 149.068156, -35.395668, 579.6 ], [ 149.068071, -35.395505, 578.4 ], [ 149.06798, -35.39535, 580.6 ], [ 149.067941, -35.395305, 580.0 ], [ 149.067902, -35.395263, 579.4 ], [ 149.067718, -35.395095, 577.4 ], [ 149.067671, -35.395054, 576.8 ], [ 149.067558, -35.394928, 577.4 ], [ 149.067522, -35.39488, 578.6 ], [ 149.067486, -35.394831, 581.4 ], [ 149.067447, -35.394778, 586.2 ], [ 149.067363, -35.39464, 583.8 ], [ 149.067337, -35.394592, 582.4 ], [ 149.067308, -35.394546, 581.2 ], [ 149.067137, -35.394235, 580.8 ], [ 149.066938, -35.393905, 580.6 ], [ 149.066796, -35.393703, 581.0 ], [ 149.06671, -35.3936, 581.2 ], [ 149.066631, -35.393506, 581.2 ], [ 149.066513, -35.393368, 581.4 ], [ 149.066463, -35.39333, 581.4 ], [ 149.066324, -35.393285, 582.4 ], [ 149.066171, -35.393278, 582.4 ], [ 149.066022, -35.393284, 581.8 ], [ 149.065812, -35.393293, 581.6 ], [ 149.065696, -35.393267, 582.2 ], [ 149.065534, -35.393202, 590.2 ], [ 149.065378, -35.393125, 592.6 ], [ 149.065325, -35.393094, 591.4 ], [ 149.065009, -35.392929, 592.6 ], [ 149.064955, -35.392907, 592.8 ], [ 149.064756, -35.392823, 594.8 ], [ 149.064705, -35.392795, 595.0 ], [ 149.06466, -35.392764, 594.8 ], [ 149.064625, -35.39273, 594.6 ], [ 149.064522, -35.392606, 594.0 ], [ 149.064483, -35.392559, 592.8 ], [ 149.064448, -35.392508, 591.0 ], [ 149.064371, -35.392364, 588.4 ], [ 149.064254, -35.392129, 586.8 ], [ 149.064203, -35.392036, 585.6 ], [ 149.06403, -35.391797, 586.0 ], [ 149.063816, -35.391571, 587.0 ], [ 149.063773, -35.391536, 588.0 ], [ 149.063721, -35.391501, 589.6 ], [ 149.063598, -35.391445, 591.0 ], [ 149.06341, -35.391368, 591.6 ], [ 149.063289, -35.391308, 592.0 ], [ 149.063167, -35.39125, 592.4 ], [ 149.063061, -35.391182, 593.2 ], [ 149.062959, -35.391121, 591.2 ], [ 149.062914, -35.39109, 588.6 ], [ 149.062823, -35.39101, 587.0 ], [ 149.062752, -35.390926, 586.2 ], [ 149.062652, -35.390792, 586.8 ], [ 149.06254, -35.390518, 587.2 ], [ 149.062517, -35.390403, 587.4 ], [ 149.062432, -35.390149, 588.0 ], [ 149.062413, -35.390105, 588.2 ], [ 149.062288, -35.389812, 588.8 ], [ 149.0622, -35.389551, 589.2 ], [ 149.062182, -35.3895, 589.4 ], [ 149.062085, -35.389187, 589.6 ], [ 149.062028, -35.389091, 589.6 ], [ 149.061857, -35.388854, 590.2 ], [ 149.061788, -35.388766, 590.4 ], [ 149.061711, -35.388628, 591.0 ], [ 149.06166, -35.388531, 591.2 ], [ 149.06155, -35.38822, 591.0 ], [ 149.061443, -35.387901, 591.2 ], [ 149.061393, -35.387739, 591.0 ], [ 149.061242, -35.387296, 591.2 ], [ 149.061137, -35.38722, 590.8 ], [ 149.061076, -35.387189, 590.8 ], [ 149.060832, -35.387079, 590.8 ], [ 149.060525, -35.386938, 591.6 ], [ 149.060409, -35.386883, 592.0 ], [ 149.0602, -35.386752, 592.8 ], [ 149.060149, -35.386716, 592.8 ], [ 149.059953, -35.386562, 593.0 ], [ 149.0598, -35.38645, 593.2 ], [ 149.05944, -35.386252, 592.8 ], [ 149.059054, -35.386109, 593.4 ], [ 149.058999, -35.386072, 593.6 ], [ 149.058959, -35.386021, 593.6 ], [ 149.058927, -35.385896, 593.4 ], [ 149.058939, -35.38553, 592.6 ], [ 149.058928, -35.385476, 592.2 ], [ 149.058897, -35.385371, 591.4 ], [ 149.058868, -35.385265, 592.4 ], [ 149.058829, -35.385153, 592.6 ], [ 149.058792, -35.3851, 592.8 ], [ 149.058746, -35.385052, 593.2 ], [ 149.058695, -35.38501, 593.4 ], [ 149.058639, -35.384968, 594.6 ], [ 149.058462, -35.384851, 592.4 ], [ 149.058412, -35.384822, 591.2 ], [ 149.05824, -35.384714, 593.8 ], [ 149.058202, -35.384682, 594.0 ], [ 149.05816, -35.384648, 594.2 ], [ 149.058086, -35.384573, 594.2 ], [ 149.057957, -35.384396, 594.0 ], [ 149.057781, -35.384243, 594.4 ], [ 149.057724, -35.384214, 594.6 ], [ 149.057604, -35.384152, 595.0 ], [ 149.057361, -35.383969, 596.4 ], [ 149.057274, -35.383891, 597.4 ], [ 149.057166, -35.38376, 597.4 ], [ 149.057139, -35.383717, 597.4 ], [ 149.057014, -35.383449, 598.8 ], [ 149.05699, -35.383355, 600.2 ], [ 149.056889, -35.382926, 601.4 ], [ 149.056845, -35.38273, 601.8 ], [ 149.056795, -35.382532, 600.4 ], [ 149.056781, -35.382481, 599.8 ], [ 149.056767, -35.382431, 598.4 ], [ 149.056715, -35.382225, 599.0 ], [ 149.056649, -35.381971, 599.8 ], [ 149.056563, -35.381599, 601.4 ], [ 149.056538, -35.381552, 602.4 ], [ 149.056498, -35.381513, 603.0 ], [ 149.056449, -35.381493, 602.6 ], [ 149.056354, -35.381448, 602.0 ], [ 149.056326, -35.381409, 601.6 ], [ 149.056302, -35.381365, 601.2 ], [ 149.056289, -35.381319, 601.2 ], [ 149.056288, -35.381272, 601.6 ], [ 149.056299, -35.38119, 602.2 ], [ 149.056308, -35.381148, 602.6 ], [ 149.056319, -35.381027, 603.8 ], [ 149.056308, -35.380915, 604.4 ], [ 149.056295, -35.380827, 604.4 ], [ 149.056284, -35.380737, 604.6 ], [ 149.056278, -35.380642, 604.8 ], [ 149.056267, -35.380552, 604.8 ], [ 149.056258, -35.380461, 603.2 ], [ 149.056213, -35.380323, 601.8 ], [ 149.056135, -35.380149, 604.4 ], [ 149.056124, -35.38006, 605.8 ], [ 149.056122, -35.380013, 605.8 ], [ 149.056088, -35.379742, 605.6 ], [ 149.05604, -35.37957, 607.8 ], [ 149.056059, -35.379533, 608.0 ], [ 149.056104, -35.379439, 605.2 ], [ 149.056106, -35.379422, 603.8 ], [ 149.0561, -35.379396, 602.6 ], [ 149.0561, -35.379396, 601.4 ], [ 149.0561, -35.379396, 603.8 ], [ 149.0561, -35.379396, 605.0 ], [ 149.056101, -35.379393, 608.8 ], [ 149.056088, -35.379259, 609.2 ], [ 149.056051, -35.379138, 608.4 ], [ 149.056022, -35.379111, 608.4 ], [ 149.055988, -35.379077, 608.4 ], [ 149.055963, -35.379006, 608.8 ], [ 149.055959, -35.378929, 609.0 ], [ 149.055967, -35.378764, 609.4 ], [ 149.055974, -35.378613, 609.8 ], [ 149.05598, -35.378415, 610.6 ], [ 149.055991, -35.378239, 611.0 ], [ 149.055979, -35.378143, 611.0 ], [ 149.055964, -35.378094, 611.2 ], [ 149.055937, -35.378049, 611.2 ], [ 149.055849, -35.377903, 610.8 ], [ 149.055833, -35.377848, 610.6 ], [ 149.055846, -35.37772, 609.8 ], [ 149.05593, -35.377417, 609.6 ], [ 149.056002, -35.377348, 610.6 ], [ 149.056065, -35.377286, 611.0 ], [ 149.056087, -35.377246, 611.8 ], [ 149.0561, -35.377201, 612.6 ], [ 149.056106, -35.377155, 613.6 ], [ 149.056113, -35.377111, 613.8 ], [ 149.056148, -35.376932, 613.4 ], [ 149.05616, -35.37684, 613.6 ], [ 149.056189, -35.376632, 614.0 ], [ 149.056204, -35.376479, 613.8 ], [ 149.056286, -35.376065, 614.8 ], [ 149.056334, -35.375764, 615.2 ], [ 149.056367, -35.375562, 615.6 ], [ 149.056385, -35.375466, 615.8 ], [ 149.056432, -35.375177, 615.4 ], [ 149.056441, -35.375019, 618.2 ], [ 149.056431, -35.374872, 620.0 ], [ 149.056444, -35.374771, 619.2 ], [ 149.056447, -35.374724, 618.6 ], [ 149.056459, -35.374625, 617.4 ], [ 149.056477, -35.374425, 616.2 ], [ 149.056476, -35.374328, 616.6 ], [ 149.056498, -35.374107, 617.8 ], [ 149.056532, -35.37407, 618.8 ], [ 149.056573, -35.374039, 619.4 ], [ 149.056668, -35.373995, 620.2 ], [ 149.056707, -35.373974, 617.2 ], [ 149.056707, -35.373974, 617.0 ], [ 149.056708, -35.373973, 618.2 ], [ 149.056722, -35.373908, 619.2 ], [ 149.056724, -35.373878, 620.2 ], [ 149.056752, -35.373731, 621.0 ], [ 149.05675, -35.373652, 620.2 ], [ 149.056703, -35.373577, 619.4 ], [ 149.056706, -35.373534, 619.2 ], [ 149.056726, -35.373494, 619.2 ], [ 149.056742, -35.373454, 619.2 ], [ 149.056755, -35.373411, 619.2 ], [ 149.056797, -35.373173, 619.8 ], [ 149.056822, -35.373018, 620.4 ], [ 149.056889, -35.37275, 621.0 ], [ 149.056915, -35.372647, 621.4 ], [ 149.057015, -35.372334, 621.8 ], [ 149.057067, -35.372179, 622.4 ], [ 149.057173, -35.371873, 625.2 ], [ 149.057236, -35.371726, 626.6 ], [ 149.057276, -35.371625, 625.4 ], [ 149.057317, -35.371525, 624.4 ], [ 149.057357, -35.371427, 625.8 ], [ 149.057377, -35.371374, 628.8 ], [ 149.0574, -35.371323, 629.0 ], [ 149.05744, -35.371227, 630.4 ], [ 149.057506, -35.371081, 628.0 ], [ 149.057601, -35.370891, 627.2 ], [ 149.057625, -35.370843, 626.0 ], [ 149.057749, -35.370611, 628.2 ], [ 149.057866, -35.370436, 627.0 ], [ 149.058021, -35.370217, 629.0 ], [ 149.058084, -35.37014, 632.0 ], [ 149.058403, -35.369791, 633.0 ], [ 149.058604, -35.369545, 633.4 ], [ 149.058625, -35.3695, 632.0 ], [ 149.058724, -35.369214, 631.6 ], [ 149.05879, -35.369136, 631.6 ], [ 149.058907, -35.369032, 632.2 ], [ 149.058949, -35.369004, 632.8 ], [ 149.058995, -35.368977, 633.6 ], [ 149.05904, -35.368948, 637.0 ], [ 149.059162, -35.368867, 637.2 ], [ 149.059243, -35.368814, 635.0 ], [ 149.059531, -35.368629, 632.6 ], [ 149.059684, -35.368528, 633.6 ], [ 149.059726, -35.368503, 634.8 ], [ 149.059767, -35.368476, 636.4 ], [ 149.05985, -35.368425, 638.0 ], [ 149.059892, -35.3684, 639.0 ], [ 149.059931, -35.368376, 638.8 ], [ 149.060092, -35.36827, 637.6 ], [ 149.060167, -35.368212, 637.6 ], [ 149.060226, -35.368142, 637.8 ], [ 149.060237, -35.368099, 638.8 ], [ 149.060252, -35.367967, 639.6 ], [ 149.060286, -35.367751, 636.6 ], [ 149.060331, -35.367647, 635.6 ], [ 149.060362, -35.367597, 636.6 ], [ 149.060439, -35.367503, 637.8 ], [ 149.060528, -35.367423, 637.4 ], [ 149.060625, -35.367348, 635.8 ], [ 149.060909, -35.36712, 639.4 ], [ 149.061006, -35.367047, 640.8 ], [ 149.061199, -35.36691, 639.2 ], [ 149.061249, -35.366875, 639.0 ], [ 149.061299, -35.366843, 637.6 ], [ 149.061435, -35.366757, 636.4 ], [ 149.061561, -35.366669, 637.0 ], [ 149.061603, -35.366641, 638.0 ], [ 149.061645, -35.366611, 639.0 ], [ 149.061725, -35.366552, 641.2 ], [ 149.061762, -35.366523, 642.2 ], [ 149.061841, -35.366471, 644.6 ], [ 149.061984, -35.366376, 646.0 ], [ 149.062126, -35.36628, 645.6 ], [ 149.062356, -35.366145, 647.4 ], [ 149.062427, -35.366099, 648.6 ], [ 149.062464, -35.366074, 649.8 ], [ 149.062729, -35.365899, 648.8 ], [ 149.062764, -35.365874, 647.8 ], [ 149.0628, -35.365846, 646.6 ], [ 149.062901, -35.365755, 645.4 ], [ 149.062964, -35.365695, 645.8 ], [ 149.063057, -35.36561, 646.6 ], [ 149.063208, -35.365466, 647.8 ], [ 149.063369, -35.365314, 649.0 ], [ 149.063685, -35.365021, 650.0 ], [ 149.063722, -35.364985, 650.0 ], [ 149.063866, -35.364836, 650.2 ], [ 149.063899, -35.364801, 650.2 ], [ 149.064006, -35.364688, 650.4 ], [ 149.064287, -35.364387, 651.0 ], [ 149.064388, -35.364275, 651.2 ], [ 149.06446, -35.364198, 651.4 ], [ 149.064567, -35.364078, 651.6 ], [ 149.06477, -35.363853, 652.2 ], [ 149.064994, -35.363609, 653.2 ], [ 149.065052, -35.363538, 653.6 ], [ 149.065352, -35.363206, 654.2 ], [ 149.065424, -35.36313, 654.2 ], [ 149.065642, -35.362876, 652.8 ], [ 149.065711, -35.362777, 651.8 ], [ 149.065936, -35.362456, 651.2 ], [ 149.066256, -35.361975, 652.0 ], [ 149.066285, -35.361934, 653.0 ], [ 149.066338, -35.361856, 654.6 ], [ 149.066359, -35.361816, 655.8 ], [ 149.066373, -35.361778, 656.2 ], [ 149.0664, -35.361705, 657.0 ], [ 149.066409, -35.361667, 657.2 ], [ 149.066463, -35.361539, 657.6 ], [ 149.066486, -35.361494, 657.4 ], [ 149.066665, -35.361239, 660.4 ], [ 149.066753, -35.361123, 661.6 ], [ 149.066847, -35.360999, 660.4 ], [ 149.066941, -35.36086, 659.4 ], [ 149.066989, -35.360784, 659.0 ], [ 149.067036, -35.360704, 657.4 ], [ 149.067126, -35.360538, 656.4 ], [ 149.067173, -35.360453, 653.8 ], [ 149.067224, -35.360374, 650.8 ], [ 149.067272, -35.360289, 647.0 ], [ 149.067323, -35.3602, 644.2 ], [ 149.067439, -35.359913, 643.2 ], [ 149.067468, -35.359812, 642.6 ], [ 149.067495, -35.359707, 641.6 ], [ 149.067546, -35.3595, 640.2 ], [ 149.067572, -35.359392, 639.2 ], [ 149.067678, -35.358989, 639.2 ], [ 149.067742, -35.358697, 637.8 ], [ 149.067817, -35.358414, 637.4 ], [ 149.067858, -35.358329, 636.8 ], [ 149.067911, -35.358245, 636.2 ], [ 149.067962, -35.358167, 635.4 ], [ 149.068049, -35.358004, 634.4 ], [ 149.068116, -35.357844, 634.8 ], [ 149.068206, -35.357614, 633.0 ], [ 149.068193, -35.357523, 633.0 ], [ 149.068086, -35.357475, 632.4 ], [ 149.068056, -35.357442, 631.2 ], [ 149.068041, -35.3574, 630.0 ], [ 149.068066, -35.357311, 630.8 ], [ 149.068125, -35.357153, 631.8 ], [ 149.068143, -35.357099, 633.8 ], [ 149.068173, -35.356992, 634.8 ], [ 149.068189, -35.356938, 634.8 ], [ 149.068304, -35.356596, 635.4 ], [ 149.068327, -35.356514, 636.0 ], [ 149.068364, -35.356394, 637.4 ], [ 149.068383, -35.356317, 638.2 ], [ 149.068394, -35.35628, 638.4 ], [ 149.068425, -35.356164, 639.4 ], [ 149.068437, -35.356123, 639.6 ], [ 149.06846, -35.356038, 639.8 ], [ 149.068536, -35.355662, 639.4 ], [ 149.068547, -35.35561, 639.2 ], [ 149.068604, -35.355287, 638.2 ], [ 149.068681, -35.354867, 634.8 ], [ 149.068693, -35.354776, 633.8 ], [ 149.06872, -35.354589, 631.4 ], [ 149.06873, -35.354494, 630.0 ], [ 149.06874, -35.354391, 629.0 ], [ 149.068752, -35.354292, 628.2 ], [ 149.068761, -35.35419, 627.6 ], [ 149.068786, -35.353883, 626.4 ], [ 149.068795, -35.35368, 625.2 ], [ 149.068795, -35.353575, 624.8 ], [ 149.06875, -35.3532, 624.8 ], [ 149.068732, -35.353116, 624.8 ], [ 149.068593, -35.352709, 624.8 ], [ 149.068559, -35.352631, 624.8 ], [ 149.068343, -35.352105, 625.2 ], [ 149.068317, -35.352029, 625.2 ], [ 149.068206, -35.351592, 626.2 ], [ 149.068191, -35.351443, 624.4 ], [ 149.068166, -35.351064, 628.2 ], [ 149.068162, -35.350989, 628.2 ], [ 149.068129, -35.350617, 626.2 ], [ 149.068119, -35.350538, 624.2 ], [ 149.068089, -35.350285, 622.8 ], [ 149.068078, -35.350199, 621.4 ], [ 149.068067, -35.35011, 620.4 ], [ 149.068044, -35.349922, 619.2 ], [ 149.068, -35.349733, 617.8 ], [ 149.067969, -35.349644, 617.2 ], [ 149.067926, -35.349558, 616.6 ], [ 149.067778, -35.349324, 614.4 ], [ 149.067602, -35.349117, 611.8 ], [ 149.067546, -35.349051, 610.6 ], [ 149.067438, -35.348931, 611.4 ], [ 149.06735, -35.348826, 612.0 ], [ 149.067309, -35.348777, 617.0 ], [ 149.067247, -35.348702, 615.8 ], [ 149.067226, -35.348667, 613.0 ], [ 149.067206, -35.348634, 609.8 ], [ 149.067193, -35.348608, 608.6 ], [ 149.06719, -35.348593, 607.2 ], [ 149.067189, -35.348585, 606.0 ], [ 149.06719, -35.348585, 607.0 ], [ 149.06719, -35.348585, 608.8 ], [ 149.06719, -35.348585, 610.2 ], [ 149.06719, -35.348585, 611.2 ], [ 149.06719, -35.348585, 611.0 ], [ 149.067185, -35.348563, 611.0 ], [ 149.067165, -35.348412, 610.2 ], [ 149.067178, -35.348365, 610.0 ], [ 149.067196, -35.348313, 609.8 ], [ 149.067246, -35.348214, 609.6 ], [ 149.067301, -35.34808, 609.8 ], [ 149.067297, -35.348045, 611.2 ], [ 149.067298, -35.348036, 610.8 ], [ 149.067306, -35.348004, 610.4 ], [ 149.06727, -35.347992, 610.4 ], [ 149.067117, -35.347979, 610.2 ], [ 149.067068, -35.347972, 610.0 ], [ 149.066787, -35.347918, 610.0 ], [ 149.06661, -35.347878, 611.2 ], [ 149.066488, -35.347848, 612.6 ], [ 149.066233, -35.347777, 613.8 ], [ 149.066108, -35.347743, 615.2 ], [ 149.065776, -35.347638, 613.8 ], [ 149.065712, -35.347617, 613.2 ], [ 149.06558, -35.347577, 612.0 ], [ 149.06551, -35.347559, 611.0 ], [ 149.065445, -35.347531, 609.8 ], [ 149.065304, -35.347483, 611.8 ], [ 149.065231, -35.347461, 613.8 ], [ 149.065091, -35.347417, 614.8 ], [ 149.06502, -35.347396, 615.2 ], [ 149.064641, -35.347277, 613.4 ], [ 149.064561, -35.347251, 611.2 ], [ 149.064478, -35.347223, 610.0 ], [ 149.064313, -35.34717, 608.0 ], [ 149.064143, -35.347116, 604.4 ], [ 149.063893, -35.347041, 607.0 ], [ 149.063812, -35.347014, 607.8 ], [ 149.063272, -35.346841, 606.4 ], [ 149.06278, -35.346714, 607.8 ], [ 149.062658, -35.346697, 606.2 ], [ 149.062613, -35.346679, 604.0 ], [ 149.062574, -35.346659, 603.4 ], [ 149.062476, -35.346647, 602.2 ], [ 149.06237, -35.346635, 602.8 ], [ 149.062292, -35.346578, 603.2 ], [ 149.062255, -35.346549, 603.4 ], [ 149.062179, -35.346491, 604.6 ], [ 149.062133, -35.346477, 605.2 ], [ 149.062074, -35.346475, 605.6 ], [ 149.062022, -35.346475, 605.8 ], [ 149.061901, -35.346463, 605.6 ], [ 149.061831, -35.346447, 605.0 ], [ 149.061677, -35.346404, 604.2 ], [ 149.061428, -35.346328, 605.0 ], [ 149.061342, -35.346301, 604.8 ], [ 149.061252, -35.346273, 604.8 ], [ 149.060889, -35.34616, 602.4 ], [ 149.060606, -35.346073, 602.0 ], [ 149.060508, -35.346042, 601.0 ], [ 149.060315, -35.345984, 599.0 ], [ 149.060122, -35.345922, 597.4 ], [ 149.059923, -35.345858, 596.8 ], [ 149.059764, -35.345814, 595.0 ], [ 149.059606, -35.34577, 593.8 ], [ 149.059264, -35.345686, 592.6 ], [ 149.059038, -35.345627, 591.4 ], [ 149.058696, -35.34554, 590.2 ], [ 149.058401, -35.34546, 590.0 ], [ 149.058324, -35.345428, 590.0 ], [ 149.058254, -35.345395, 589.8 ], [ 149.058196, -35.345349, 589.6 ], [ 149.058141, -35.345294, 589.0 ], [ 149.058098, -35.345233, 588.2 ], [ 149.058068, -35.345159, 587.2 ], [ 149.058051, -35.34508, 586.0 ], [ 149.058054, -35.344998, 585.0 ], [ 149.058069, -35.344918, 584.0 ], [ 149.058083, -35.344833, 583.2 ], [ 149.058096, -35.344597, 582.8 ], [ 149.058079, -35.344438, 582.6 ], [ 149.058062, -35.344358, 582.6 ], [ 149.057955, -35.344141, 582.4 ], [ 149.057882, -35.343997, 582.2 ], [ 149.057861, -35.343927, 582.0 ], [ 149.057836, -35.343784, 582.2 ], [ 149.05785, -35.343448, 582.6 ], [ 149.05785, -35.343345, 582.6 ], [ 149.057818, -35.343307, 582.6 ], [ 149.057762, -35.34328, 582.6 ], [ 149.057601, -35.34327, 581.0 ], [ 149.057451, -35.343266, 579.8 ], [ 149.057364, -35.343256, 579.8 ], [ 149.057226, -35.34321, 579.6 ], [ 149.057168, -35.343171, 579.4 ], [ 149.056841, -35.342966, 579.0 ], [ 149.056673, -35.342903, 578.4 ], [ 149.056575, -35.342874, 577.4 ], [ 149.056476, -35.342852, 577.2 ], [ 149.056382, -35.342828, 579.0 ], [ 149.056291, -35.342801, 580.0 ], [ 149.056213, -35.342766, 581.4 ], [ 149.056138, -35.342723, 583.2 ], [ 149.056062, -35.342678, 585.6 ], [ 149.055866, -35.342531, 583.6 ], [ 149.055801, -35.34248, 583.4 ], [ 149.055675, -35.342375, 585.4 ], [ 149.055432, -35.342155, 585.8 ], [ 149.055304, -35.34205, 584.0 ], [ 149.055241, -35.341999, 580.4 ], [ 149.055174, -35.341944, 577.2 ], [ 149.055109, -35.34189, 574.2 ], [ 149.054977, -35.341783, 573.2 ], [ 149.054632, -35.341515, 573.2 ], [ 149.054361, -35.341295, 573.0 ], [ 149.054242, -35.341161, 572.6 ], [ 149.054108, -35.340963, 572.0 ], [ 149.053981, -35.340762, 572.4 ], [ 149.053952, -35.340693, 572.2 ], [ 149.053861, -35.340404, 570.6 ], [ 149.05376, -35.339891, 570.6 ], [ 149.053765, -35.339822, 570.8 ], [ 149.0538, -35.339695, 571.0 ], [ 149.0539, -35.33936, 569.2 ], [ 149.053906, -35.339247, 568.8 ], [ 149.053887, -35.339118, 568.6 ], [ 149.053849, -35.338851, 568.2 ], [ 149.053836, -35.338781, 566.6 ], [ 149.05383, -35.338714, 564.0 ], [ 149.053817, -35.338645, 563.6 ], [ 149.053787, -35.338506, 562.8 ], [ 149.053788, -35.338438, 565.2 ], [ 149.053774, -35.338371, 568.0 ], [ 149.053764, -35.338304, 568.0 ], [ 149.053692, -35.337974, 566.8 ], [ 149.05366, -35.33791, 566.6 ], [ 149.053476, -35.337582, 566.4 ], [ 149.053358, -35.337484, 566.2 ], [ 149.053228, -35.337383, 566.0 ], [ 149.053027, -35.337231, 568.4 ], [ 149.05289, -35.337136, 570.0 ], [ 149.052825, -35.337087, 568.4 ], [ 149.052693, -35.336993, 567.4 ], [ 149.052368, -35.336764, 566.2 ], [ 149.052225, -35.336632, 564.8 ], [ 149.052191, -35.336584, 564.4 ], [ 149.052169, -35.336535, 564.6 ], [ 149.052193, -35.336436, 565.2 ], [ 149.052258, -35.336299, 565.2 ], [ 149.052312, -35.336206, 564.4 ], [ 149.052337, -35.336158, 564.2 ], [ 149.052377, -35.33607, 564.0 ], [ 149.052343, -35.335998, 563.8 ], [ 149.052284, -35.335947, 562.0 ], [ 149.052207, -35.335892, 560.6 ], [ 149.052142, -35.335866, 558.6 ], [ 149.052103, -35.335841, 556.6 ], [ 149.052061, -35.335802, 555.6 ], [ 149.051917, -35.335758, 555.4 ], [ 149.051907, -35.33571, 557.4 ], [ 149.051921, -35.335669, 559.4 ], [ 149.051956, -35.335644, 561.2 ], [ 149.051988, -35.335621, 562.4 ], [ 149.052023, -35.335601, 564.6 ], [ 149.052138, -35.335531, 565.8 ], [ 149.05222, -35.335474, 567.6 ], [ 149.052244, -35.335437, 567.2 ], [ 149.052274, -35.335398, 566.6 ], [ 149.052345, -35.335311, 565.2 ], [ 149.052416, -35.335214, 565.6 ], [ 149.052443, -35.335159, 567.0 ], [ 149.052471, -35.335039, 569.8 ], [ 149.052486, -35.334972, 566.8 ], [ 149.052505, -35.334905, 564.0 ], [ 149.052535, -35.33484, 561.6 ], [ 149.052616, -35.334719, 560.0 ], [ 149.052702, -35.334606, 560.0 ], [ 149.052901, -35.334311, 560.2 ], [ 149.05298, -35.334187, 560.0 ], [ 149.053051, -35.334062, 559.8 ], [ 149.053119, -35.333929, 559.4 ], [ 149.05331, -35.333507, 560.6 ], [ 149.053408, -35.333226, 561.2 ], [ 149.053467, -35.333008, 561.6 ], [ 149.05352, -35.33272, 560.0 ], [ 149.053546, -35.33254, 558.4 ], [ 149.053566, -35.332419, 558.0 ], [ 149.053579, -35.332322, 559.0 ], [ 149.053588, -35.332274, 559.6 ], [ 149.053591, -35.332181, 560.8 ], [ 149.053597, -35.332036, 561.2 ], [ 149.053593, -35.331668, 559.8 ], [ 149.053593, -35.331483, 559.6 ], [ 149.053594, -35.331232, 559.2 ], [ 149.053567, -35.330844, 561.8 ], [ 149.053557, -35.330719, 563.6 ], [ 149.053558, -35.330652, 563.0 ], [ 149.053552, -35.330526, 561.4 ], [ 149.053547, -35.330464, 560.4 ], [ 149.053537, -35.330267, 562.6 ], [ 149.053539, -35.330125, 564.0 ], [ 149.053534, -35.330057, 566.2 ], [ 149.053521, -35.329856, 566.2 ], [ 149.053504, -35.329788, 565.0 ], [ 149.053492, -35.329721, 563.6 ], [ 149.05348, -35.329589, 562.0 ], [ 149.053464, -35.329457, 559.8 ], [ 149.053443, -35.32933, 560.0 ], [ 149.05337, -35.329121, 558.4 ], [ 149.053386, -35.329072, 558.0 ], [ 149.053421, -35.329033, 557.6 ], [ 149.053464, -35.329008, 557.0 ], [ 149.053501, -35.328975, 558.0 ], [ 149.053509, -35.328882, 558.8 ], [ 149.053515, -35.328781, 559.4 ], [ 149.053499, -35.328689, 560.2 ], [ 149.053456, -35.328654, 560.4 ], [ 149.053398, -35.328566, 559.8 ], [ 149.053414, -35.328525, 558.8 ], [ 149.053447, -35.328486, 558.4 ], [ 149.053474, -35.328442, 557.4 ], [ 149.053485, -35.328392, 557.0 ], [ 149.053486, -35.328339, 556.4 ], [ 149.05348, -35.328287, 556.0 ], [ 149.053476, -35.328172, 554.8 ], [ 149.053473, -35.328043, 555.2 ], [ 149.053473, -35.32798, 555.8 ], [ 149.053472, -35.327857, 556.0 ], [ 149.053458, -35.327671, 554.6 ], [ 149.053455, -35.327613, 554.0 ], [ 149.053445, -35.327429, 553.0 ], [ 149.05343, -35.327179, 555.0 ], [ 149.053403, -35.326943, 555.2 ], [ 149.053347, -35.32686, 553.8 ], [ 149.053312, -35.326832, 553.4 ], [ 149.053263, -35.326776, 553.4 ], [ 149.053281, -35.326733, 553.8 ], [ 149.053334, -35.326675, 554.4 ], [ 149.053307, -35.326633, 554.4 ], [ 149.053228, -35.326539, 552.6 ], [ 149.053221, -35.326527, 552.8 ], [ 149.053202, -35.326506, 555.2 ], [ 149.053142, -35.326425, 556.0 ], [ 149.053056, -35.32631, 556.8 ], [ 149.053076, -35.326274, 556.6 ], [ 149.053194, -35.326206, 555.8 ], [ 149.053329, -35.326127, 555.2 ], [ 149.053436, -35.326077, 553.8 ], [ 149.053476, -35.326038, 552.4 ], [ 149.053483, -35.32599, 552.2 ], [ 149.053465, -35.325959, 552.8 ], [ 149.053421, -35.325938, 553.8 ], [ 149.053376, -35.32592, 555.0 ], [ 149.05327, -35.325873, 556.0 ], [ 149.053221, -35.325839, 555.2 ], [ 149.053174, -35.325801, 554.4 ], [ 149.053129, -35.325757, 551.6 ], [ 149.053088, -35.325705, 549.8 ], [ 149.053056, -35.325648, 549.2 ], [ 149.053033, -35.325588, 549.2 ], [ 149.053027, -35.325523, 549.2 ], [ 149.053064, -35.325402, 548.6 ], [ 149.053154, -35.325311, 548.6 ], [ 149.053213, -35.325274, 549.0 ], [ 149.05333, -35.325207, 550.0 ], [ 149.053596, -35.32501, 550.8 ], [ 149.053694, -35.324906, 551.0 ], [ 149.053787, -35.324784, 549.8 ], [ 149.05383, -35.324715, 549.8 ], [ 149.053985, -35.324427, 551.0 ], [ 149.054088, -35.324231, 551.2 ], [ 149.054131, -35.324101, 552.8 ], [ 149.054164, -35.323911, 553.0 ], [ 149.054133, -35.323542, 552.2 ], [ 149.054055, -35.323288, 552.6 ], [ 149.053987, -35.323165, 553.2 ], [ 149.053802, -35.322859, 554.4 ], [ 149.053763, -35.322796, 557.6 ], [ 149.053727, -35.322733, 556.6 ], [ 149.053696, -35.322673, 556.2 ], [ 149.053632, -35.322484, 555.6 ], [ 149.053613, -35.322356, 554.8 ], [ 149.053611, -35.322232, 554.0 ], [ 149.053619, -35.322178, 555.0 ], [ 149.053633, -35.322126, 557.0 ], [ 149.05365, -35.322077, 557.0 ], [ 149.053671, -35.322029, 558.2 ], [ 149.05374, -35.321901, 559.4 ], [ 149.053786, -35.321823, 560.4 ], [ 149.053811, -35.321783, 560.2 ], [ 149.05391, -35.321664, 560.8 ], [ 149.053991, -35.321587, 561.4 ], [ 149.054031, -35.321548, 561.4 ], [ 149.054173, -35.32139, 561.0 ], [ 149.054184, -35.321296, 561.6 ], [ 149.054194, -35.321009, 562.2 ], [ 149.054228, -35.320659, 562.4 ], [ 149.054229, -35.320514, 561.4 ], [ 149.054291, -35.320384, 560.0 ], [ 149.05442, -35.32032, 558.6 ], [ 149.054486, -35.320286, 558.0 ], [ 149.054864, -35.320104, 557.8 ], [ 149.055224, -35.319934, 559.0 ], [ 149.055342, -35.319885, 561.2 ], [ 149.0554, -35.319858, 562.4 ], [ 149.055552, -35.319715, 561.4 ], [ 149.055685, -35.319612, 560.2 ], [ 149.055896, -35.319446, 558.8 ], [ 149.055957, -35.319293, 559.0 ], [ 149.055967, -35.31921, 559.0 ], [ 149.055965, -35.319127, 559.0 ], [ 149.055926, -35.318961, 557.2 ], [ 149.055889, -35.318881, 556.6 ], [ 149.055849, -35.318802, 556.2 ], [ 149.055796, -35.31873, 555.6 ], [ 149.055739, -35.318662, 555.0 ], [ 149.055669, -35.318603, 555.0 ], [ 149.055285, -35.318348, 556.8 ], [ 149.055157, -35.318272, 555.6 ], [ 149.055105, -35.318233, 554.4 ], [ 149.055071, -35.318192, 553.0 ], [ 149.055061, -35.318148, 553.0 ], [ 149.055079, -35.318105, 551.6 ], [ 149.055114, -35.318073, 551.2 ], [ 149.055224, -35.318035, 551.0 ], [ 149.055283, -35.318018, 550.8 ], [ 149.055347, -35.317998, 550.6 ], [ 149.055689, -35.317904, 552.2 ], [ 149.055833, -35.317866, 552.8 ], [ 149.055904, -35.317846, 554.0 ], [ 149.056044, -35.317807, 553.8 ], [ 149.056183, -35.317766, 554.2 ], [ 149.056255, -35.317745, 554.4 ], [ 149.056765, -35.317557, 554.4 ], [ 149.056929, -35.317482, 552.4 ], [ 149.057336, -35.317314, 550.8 ], [ 149.057563, -35.317199, 549.6 ], [ 149.057631, -35.317149, 549.6 ], [ 149.057755, -35.317033, 549.6 ], [ 149.058057, -35.316672, 549.4 ], [ 149.058425, -35.316322, 548.6 ], [ 149.058497, -35.316252, 547.8 ], [ 149.058575, -35.316186, 546.8 ], [ 149.058791, -35.315988, 548.0 ], [ 149.059056, -35.315742, 548.0 ], [ 149.059289, -35.315542, 546.4 ], [ 149.059357, -35.315502, 546.6 ], [ 149.059729, -35.315336, 547.6 ], [ 149.059804, -35.315303, 547.6 ], [ 149.060115, -35.315182, 548.6 ], [ 149.060435, -35.315083, 549.2 ], [ 149.060826, -35.315009, 547.6 ], [ 149.060984, -35.314988, 547.6 ], [ 149.061521, -35.314857, 547.2 ], [ 149.061802, -35.314737, 547.6 ], [ 149.062002, -35.314624, 547.8 ], [ 149.062334, -35.314418, 545.8 ], [ 149.062482, -35.314338, 544.4 ], [ 149.062556, -35.3143, 544.4 ], [ 149.062969, -35.314106, 545.8 ], [ 149.063568, -35.313844, 545.4 ], [ 149.063653, -35.313807, 545.4 ], [ 149.064187, -35.313576, 547.2 ], [ 149.0648, -35.31328, 546.8 ], [ 149.064863, -35.313241, 547.0 ], [ 149.065151, -35.313018, 546.0 ], [ 149.065266, -35.312923, 545.6 ], [ 149.065384, -35.312838, 547.0 ], [ 149.065577, -35.312721, 545.4 ], [ 149.065713, -35.312653, 544.2 ], [ 149.065906, -35.312567, 547.2 ], [ 149.065968, -35.31254, 548.4 ], [ 149.066029, -35.312518, 549.6 ], [ 149.066087, -35.312497, 549.8 ], [ 149.066368, -35.312401, 551.0 ], [ 149.066477, -35.31237, 552.4 ], [ 149.066765, -35.312289, 551.0 ], [ 149.066994, -35.312213, 551.6 ], [ 149.067102, -35.312166, 552.4 ], [ 149.067212, -35.312109, 551.2 ], [ 149.067316, -35.312034, 551.6 ], [ 149.067469, -35.311914, 552.8 ], [ 149.067742, -35.311701, 551.6 ], [ 149.06788, -35.311602, 550.6 ], [ 149.068169, -35.311389, 549.0 ], [ 149.068416, -35.311195, 547.8 ], [ 149.068533, -35.311097, 548.4 ], [ 149.068697, -35.310957, 549.2 ], [ 149.069112, -35.310679, 549.6 ], [ 149.069392, -35.310562, 550.2 ], [ 149.069587, -35.31047, 549.4 ], [ 149.069649, -35.310432, 550.0 ], [ 149.06982, -35.31031, 552.0 ], [ 149.069906, -35.310217, 553.4 ], [ 149.069945, -35.310165, 555.0 ], [ 149.06998, -35.310112, 556.2 ], [ 149.070063, -35.310007, 554.8 ], [ 149.070149, -35.309898, 552.6 ], [ 149.070256, -35.30979, 551.2 ], [ 149.070536, -35.3095, 551.0 ], [ 149.070643, -35.309378, 551.4 ], [ 149.070949, -35.308976, 551.0 ], [ 149.071104, -35.308741, 550.0 ], [ 149.07116, -35.308607, 549.8 ], [ 149.071173, -35.308535, 549.4 ], [ 149.071175, -35.308455, 549.0 ], [ 149.071171, -35.308281, 547.6 ], [ 149.07118, -35.308188, 547.6 ], [ 149.071199, -35.308095, 547.8 ], [ 149.0713, -35.307825, 548.2 ], [ 149.071427, -35.307584, 548.6 ], [ 149.071466, -35.307505, 547.4 ], [ 149.071541, -35.307346, 548.0 ], [ 149.071655, -35.307043, 549.4 ], [ 149.071693, -35.306894, 549.6 ], [ 149.07176, -35.306603, 548.2 ], [ 149.07178, -35.306535, 546.0 ], [ 149.071841, -35.306409, 545.6 ], [ 149.07194, -35.306309, 546.2 ], [ 149.071998, -35.306269, 547.6 ], [ 149.072051, -35.306227, 548.6 ], [ 149.07209, -35.306177, 549.0 ], [ 149.072127, -35.306071, 549.0 ], [ 149.072154, -35.305974, 550.2 ], [ 149.072188, -35.305842, 551.2 ], [ 149.072211, -35.305755, 551.8 ], [ 149.072247, -35.305632, 552.4 ], [ 149.072287, -35.305482, 552.8 ], [ 149.072312, -35.305418, 551.2 ], [ 149.072365, -35.305244, 553.6 ], [ 149.072397, -35.305137, 554.8 ], [ 149.072428, -35.305035, 554.8 ], [ 149.072432, -35.305002, 554.8 ], [ 149.072433, -35.304967, 553.6 ], [ 149.072434, -35.304849, 552.0 ], [ 149.072419, -35.304721, 552.0 ], [ 149.072406, -35.30463, 553.2 ], [ 149.072404, -35.304581, 554.8 ], [ 149.072396, -35.304485, 556.6 ], [ 149.072387, -35.304384, 555.4 ], [ 149.072382, -35.304328, 554.2 ], [ 149.072357, -35.304107, 555.4 ], [ 149.072365, -35.303923, 556.2 ], [ 149.072374, -35.303796, 554.0 ], [ 149.072387, -35.303737, 551.8 ], [ 149.072419, -35.30356, 550.8 ], [ 149.072558, -35.303009, 550.6 ], [ 149.072609, -35.302829, 550.4 ], [ 149.072645, -35.302648, 549.6 ], [ 149.072658, -35.302539, 549.4 ], [ 149.072712, -35.302291, 550.6 ], [ 149.072728, -35.302241, 551.0 ], [ 149.072775, -35.302151, 551.8 ], [ 149.072853, -35.302025, 552.0 ], [ 149.07288, -35.301984, 552.0 ], [ 149.07291, -35.301945, 552.2 ], [ 149.073006, -35.301835, 553.4 ], [ 149.073065, -35.301771, 555.6 ], [ 149.073121, -35.301706, 557.0 ], [ 149.073154, -35.301668, 557.6 ], [ 149.073439, -35.301339, 556.4 ], [ 149.073544, -35.301231, 557.6 ], [ 149.07359, -35.301204, 558.0 ], [ 149.073649, -35.301184, 560.0 ], [ 149.073903, -35.301151, 559.6 ], [ 149.074022, -35.301145, 558.4 ], [ 149.074103, -35.301112, 559.2 ], [ 149.074151, -35.301084, 559.6 ], [ 149.074186, -35.301055, 561.2 ], [ 149.074202, -35.301018, 561.6 ], [ 149.074208, -35.300985, 563.2 ], [ 149.074197, -35.300914, 564.6 ], [ 149.074184, -35.30088, 567.0 ], [ 149.074168, -35.300843, 568.2 ], [ 149.074141, -35.30076, 567.2 ], [ 149.074117, -35.300674, 565.6 ], [ 149.074101, -35.30063, 565.8 ], [ 149.074076, -35.300586, 566.2 ], [ 149.074044, -35.300545, 567.0 ], [ 149.074001, -35.300514, 567.8 ], [ 149.073912, -35.300455, 567.0 ], [ 149.073782, -35.300383, 565.6 ], [ 149.073638, -35.300304, 565.2 ], [ 149.073535, -35.30025, 564.4 ], [ 149.073311, -35.300139, 565.6 ], [ 149.073199, -35.300085, 567.2 ], [ 149.073088, -35.300029, 565.2 ], [ 149.073031, -35.299998, 564.2 ], [ 149.072915, -35.299941, 563.4 ], [ 149.072856, -35.299913, 561.2 ], [ 149.072734, -35.299853, 562.4 ], [ 149.072561, -35.29977, 563.6 ], [ 149.072331, -35.299651, 562.4 ], [ 149.072211, -35.299586, 563.2 ], [ 149.072088, -35.299522, 565.6 ], [ 149.072027, -35.299494, 567.6 ], [ 149.071968, -35.299465, 569.0 ], [ 149.071852, -35.299405, 570.4 ], [ 149.071672, -35.299313, 569.6 ], [ 149.071307, -35.299134, 571.2 ], [ 149.070968, -35.298939, 570.8 ], [ 149.070809, -35.298815, 568.4 ], [ 149.070726, -35.298702, 567.4 ], [ 149.070689, -35.298634, 567.2 ], [ 149.070683, -35.29856, 566.2 ], [ 149.0707, -35.298491, 566.2 ], [ 149.070736, -35.29842, 566.2 ], [ 149.070854, -35.298214, 567.6 ], [ 149.071025, -35.297954, 567.2 ], [ 149.071076, -35.297895, 565.6 ], [ 149.071127, -35.297842, 563.6 ], [ 149.071227, -35.297747, 562.2 ], [ 149.071457, -35.297527, 565.2 ], [ 149.071507, -35.297489, 566.2 ], [ 149.071667, -35.297364, 568.0 ], [ 149.071778, -35.297262, 568.4 ], [ 149.071869, -35.297148, 568.4 ], [ 149.071917, -35.297013, 567.8 ], [ 149.071895, -35.296879, 566.6 ], [ 149.071886, -35.296817, 566.0 ], [ 149.071875, -35.296756, 565.2 ], [ 149.071866, -35.296581, 565.2 ], [ 149.07189, -35.296474, 566.4 ], [ 149.071947, -35.296378, 566.8 ], [ 149.072029, -35.296296, 567.0 ], [ 149.072123, -35.29624, 566.6 ], [ 149.072212, -35.296197, 567.8 ], [ 149.072299, -35.29617, 569.4 ], [ 149.072386, -35.296162, 569.4 ], [ 149.07243, -35.296159, 569.4 ], [ 149.072577, -35.296132, 572.2 ], [ 149.072609, -35.296121, 574.8 ], [ 149.072674, -35.296096, 576.2 ], [ 149.072737, -35.296071, 577.4 ], [ 149.0728, -35.296055, 579.2 ], [ 149.072894, -35.296036, 579.2 ], [ 149.07297, -35.296032, 578.8 ], [ 149.073133, -35.2961, 578.2 ], [ 149.073156, -35.296128, 578.0 ], [ 149.073194, -35.296224, 576.8 ], [ 149.073223, -35.296289, 577.0 ], [ 149.073273, -35.296392, 578.4 ], [ 149.073325, -35.296452, 579.4 ], [ 149.073355, -35.296477, 577.6 ], [ 149.073391, -35.2965, 577.4 ], [ 149.073575, -35.296553, 578.8 ], [ 149.073649, -35.296551, 580.2 ], [ 149.073687, -35.296543, 581.4 ], [ 149.073759, -35.296519, 582.8 ], [ 149.073794, -35.296504, 584.2 ], [ 149.073891, -35.296457, 585.2 ], [ 149.074021, -35.296384, 585.4 ], [ 149.074054, -35.296365, 583.8 ], [ 149.074087, -35.296343, 581.0 ], [ 149.074187, -35.296275, 578.8 ], [ 149.074265, -35.296219, 577.6 ], [ 149.074306, -35.296189, 578.0 ], [ 149.074441, -35.296095, 578.8 ], [ 149.074654, -35.295911, 579.0 ], [ 149.074733, -35.295836, 578.6 ], [ 149.074776, -35.295799, 578.8 ], [ 149.074821, -35.295767, 579.0 ], [ 149.074914, -35.295715, 579.4 ], [ 149.07507, -35.295631, 578.2 ], [ 149.075136, -35.295526, 577.4 ], [ 149.075123, -35.295394, 576.6 ], [ 149.075099, -35.295326, 576.4 ], [ 149.074976, -35.295139, 575.0 ], [ 149.074934, -35.295073, 574.4 ], [ 149.074914, -35.294999, 574.2 ], [ 149.074934, -35.294929, 573.8 ], [ 149.074979, -35.294872, 573.4 ], [ 149.075042, -35.294821, 572.8 ], [ 149.075105, -35.294768, 572.8 ], [ 149.07524, -35.294659, 572.4 ], [ 149.075578, -35.294378, 571.2 ], [ 149.075645, -35.294325, 571.4 ], [ 149.075773, -35.294213, 570.6 ], [ 149.07591, -35.294109, 569.8 ], [ 149.075988, -35.294065, 569.2 ], [ 149.076077, -35.294027, 568.8 ], [ 149.07632, -35.293911, 569.6 ], [ 149.076444, -35.293792, 570.0 ], [ 149.076489, -35.29372, 569.6 ], [ 149.07652, -35.293645, 566.8 ], [ 149.076614, -35.293399, 566.4 ], [ 149.076749, -35.293261, 566.8 ], [ 149.076829, -35.293202, 567.2 ], [ 149.077087, -35.293055, 565.6 ], [ 149.077188, -35.293036, 565.6 ], [ 149.077295, -35.29303, 564.4 ], [ 149.077605, -35.293025, 565.2 ], [ 149.078019, -35.293016, 564.6 ], [ 149.078225, -35.293023, 564.2 ], [ 149.078423, -35.29303, 563.0 ], [ 149.078518, -35.293036, 561.8 ], [ 149.078884, -35.293046, 563.6 ], [ 149.079134, -35.293032, 561.6 ], [ 149.079452, -35.29302, 563.8 ], [ 149.079533, -35.293015, 566.2 ], [ 149.079772, -35.292996, 565.4 ], [ 149.079853, -35.292986, 564.0 ], [ 149.079936, -35.292969, 564.0 ], [ 149.080008, -35.292941, 562.6 ], [ 149.080075, -35.292909, 562.0 ], [ 149.080354, -35.292769, 563.6 ], [ 149.080691, -35.292577, 565.4 ], [ 149.080755, -35.292538, 565.2 ], [ 149.080942, -35.292424, 564.8 ], [ 149.081003, -35.292387, 564.2 ], [ 149.081123, -35.292315, 565.8 ], [ 149.081176, -35.292274, 566.4 ], [ 149.081222, -35.292229, 566.2 ], [ 149.081262, -35.29218, 566.6 ], [ 149.081394, -35.29198, 565.8 ], [ 149.081455, -35.291883, 564.4 ], [ 149.081589, -35.291655, 565.4 ], [ 149.081624, -35.291619, 565.6 ], [ 149.081668, -35.291587, 565.8 ], [ 149.081769, -35.291551, 566.4 ], [ 149.081826, -35.291533, 567.6 ], [ 149.081884, -35.29152, 569.4 ], [ 149.082, -35.291505, 570.8 ], [ 149.082047, -35.291484, 571.8 ], [ 149.082089, -35.29146, 572.6 ], [ 149.082141, -35.291447, 573.2 ], [ 149.082353, -35.291379, 572.4 ], [ 149.082407, -35.291357, 571.8 ], [ 149.082571, -35.29128, 570.6 ], [ 149.082732, -35.291177, 570.8 ], [ 149.083027, -35.290926, 571.2 ], [ 149.083086, -35.290864, 571.6 ], [ 149.083145, -35.2908, 571.2 ], [ 149.0832, -35.290736, 570.8 ], [ 149.083296, -35.290606, 569.6 ], [ 149.083336, -35.290536, 568.6 ], [ 149.083411, -35.290383, 567.4 ], [ 149.083488, -35.290127, 567.6 ], [ 149.083543, -35.289961, 566.2 ], [ 149.083621, -35.289813, 565.6 ], [ 149.083668, -35.289748, 565.4 ], [ 149.083779, -35.28963, 565.4 ], [ 149.083903, -35.28953, 565.2 ], [ 149.083973, -35.289493, 565.0 ], [ 149.084209, -35.289398, 565.0 ], [ 149.084297, -35.289379, 565.0 ], [ 149.084467, -35.289359, 565.0 ], [ 149.084551, -35.289356, 565.0 ], [ 149.084632, -35.289345, 564.6 ], [ 149.084779, -35.289291, 564.6 ], [ 149.084846, -35.289253, 565.2 ], [ 149.085033, -35.289133, 566.2 ], [ 149.08516, -35.28904, 565.4 ], [ 149.085186, -35.288975, 564.8 ], [ 149.085188, -35.288907, 565.0 ], [ 149.085176, -35.288758, 565.4 ], [ 149.085181, -35.288683, 565.6 ], [ 149.085199, -35.288611, 563.4 ], [ 149.085252, -35.288477, 562.0 ], [ 149.085471, -35.288119, 562.6 ], [ 149.085563, -35.288009, 560.8 ], [ 149.08566, -35.287904, 562.0 ], [ 149.085759, -35.287808, 563.8 ], [ 149.085853, -35.287716, 564.0 ], [ 149.086034, -35.287494, 563.0 ], [ 149.086089, -35.287361, 563.4 ], [ 149.086226, -35.287064, 563.0 ], [ 149.086273, -35.28701, 563.0 ], [ 149.086329, -35.286963, 563.2 ], [ 149.086392, -35.286926, 563.4 ], [ 149.086515, -35.286863, 563.8 ], [ 149.086564, -35.286829, 564.0 ], [ 149.086587, -35.286789, 564.6 ], [ 149.086599, -35.286753, 566.6 ], [ 149.0866, -35.286714, 569.2 ], [ 149.086575, -35.286597, 570.2 ], [ 149.086545, -35.286502, 570.8 ], [ 149.086525, -35.286452, 567.4 ], [ 149.086501, -35.286401, 567.0 ], [ 149.086482, -35.286351, 566.2 ], [ 149.08647, -35.286292, 565.0 ], [ 149.086433, -35.286102, 562.6 ], [ 149.086425, -35.286035, 560.2 ], [ 149.086389, -35.285763, 560.8 ], [ 149.086396, -35.285694, 562.0 ], [ 149.086416, -35.285634, 563.0 ], [ 149.086461, -35.285588, 563.2 ], [ 149.086569, -35.285512, 564.4 ], [ 149.08669, -35.285449, 564.8 ], [ 149.08676, -35.285423, 565.8 ], [ 149.086899, -35.285364, 565.6 ], [ 149.087371, -35.285243, 565.6 ], [ 149.08754, -35.285224, 563.4 ], [ 149.087625, -35.285212, 561.8 ], [ 149.087866, -35.285162, 561.6 ], [ 149.088158, -35.28512, 561.8 ], [ 149.08831, -35.285117, 560.0 ], [ 149.08868, -35.285128, 560.0 ], [ 149.089117, -35.285174, 561.6 ], [ 149.089219, -35.285197, 563.8 ], [ 149.089268, -35.285214, 564.8 ], [ 149.089358, -35.285256, 567.0 ], [ 149.089608, -35.285422, 566.0 ], [ 149.089655, -35.285453, 565.2 ], [ 149.089706, -35.285484, 564.4 ], [ 149.089891, -35.285596, 562.6 ], [ 149.089967, -35.285627, 562.0 ], [ 149.090205, -35.285706, 562.2 ], [ 149.090564, -35.285799, 563.0 ], [ 149.090685, -35.285833, 563.0 ], [ 149.091018, -35.285893, 562.8 ], [ 149.091272, -35.285926, 561.4 ], [ 149.091454, -35.285935, 560.0 ], [ 149.091545, -35.285935, 559.4 ], [ 149.091723, -35.285928, 558.8 ], [ 149.092167, -35.285871, 559.2 ], [ 149.092255, -35.285835, 558.8 ], [ 149.092432, -35.285783, 560.0 ], [ 149.092526, -35.285773, 560.0 ], [ 149.092982, -35.28575, 558.6 ], [ 149.093075, -35.285738, 559.4 ], [ 149.093426, -35.285699, 557.4 ], [ 149.09351, -35.285684, 557.2 ], [ 149.094169, -35.285587, 558.2 ], [ 149.09473, -35.285508, 557.8 ], [ 149.094889, -35.285479, 555.8 ], [ 149.095131, -35.285453, 554.8 ], [ 149.095212, -35.285445, 554.8 ], [ 149.095757, -35.285391, 554.8 ], [ 149.096394, -35.285348, 554.8 ], [ 149.096925, -35.285328, 555.0 ], [ 149.097313, -35.285324, 553.8 ], [ 149.097393, -35.285323, 554.0 ], [ 149.097627, -35.285323, 555.2 ], [ 149.097852, -35.285328, 555.4 ], [ 149.098078, -35.285341, 554.2 ], [ 149.098383, -35.285357, 555.0 ], [ 149.098531, -35.285374, 555.2 ], [ 149.098758, -35.285401, 554.2 ], [ 149.098907, -35.285428, 554.0 ], [ 149.099337, -35.28556, 555.0 ], [ 149.099508, -35.285635, 555.8 ], [ 149.099603, -35.285678, 556.8 ], [ 149.09965, -35.285703, 557.4 ], [ 149.099835, -35.285807, 558.2 ], [ 149.099875, -35.285825, 558.4 ], [ 149.100049, -35.285933, 559.0 ], [ 149.100116, -35.285976, 559.8 ], [ 149.100256, -35.286048, 560.8 ], [ 149.100332, -35.286077, 560.8 ], [ 149.100485, -35.286124, 563.4 ], [ 149.100521, -35.28613, 565.6 ], [ 149.100559, -35.286137, 567.0 ], [ 149.100595, -35.286147, 568.2 ], [ 149.100631, -35.286151, 569.0 ], [ 149.100665, -35.286158, 569.4 ], [ 149.100771, -35.286177, 569.8 ], [ 149.100901, -35.286206, 570.6 ], [ 149.101041, -35.286242, 571.4 ], [ 149.101074, -35.286251, 571.8 ], [ 149.10118, -35.286268, 572.2 ], [ 149.101445, -35.286294, 572.0 ], [ 149.101632, -35.286313, 571.8 ], [ 149.10181, -35.286304, 569.8 ], [ 149.101843, -35.286282, 568.8 ], [ 149.101879, -35.286255, 567.8 ], [ 149.101908, -35.286219, 566.8 ], [ 149.101943, -35.286175, 565.8 ], [ 149.101981, -35.286121, 565.0 ], [ 149.102025, -35.28606, 564.6 ], [ 149.102133, -35.285932, 563.4 ], [ 149.102196, -35.285865, 562.0 ], [ 149.102582, -35.285522, 562.0 ], [ 149.102732, -35.285379, 560.8 ], [ 149.102797, -35.285305, 559.4 ], [ 149.102849, -35.28523, 559.4 ], [ 149.1029, -35.285148, 558.6 ], [ 149.102954, -35.285073, 557.6 ], [ 149.103016, -35.285002, 557.0 ], [ 149.103228, -35.284826, 557.6 ], [ 149.103718, -35.284535, 557.0 ], [ 149.103992, -35.284448, 556.6 ], [ 149.104151, -35.284387, 557.0 ], [ 149.104355, -35.284289, 557.6 ], [ 149.10466, -35.284159, 557.0 ], [ 149.104827, -35.284101, 558.8 ], [ 149.104908, -35.284079, 559.8 ], [ 149.10499, -35.284064, 562.8 ], [ 149.105073, -35.284054, 563.0 ], [ 149.10515, -35.284056, 562.0 ], [ 149.105231, -35.284061, 561.4 ], [ 149.105391, -35.284089, 559.0 ], [ 149.105467, -35.284106, 557.8 ], [ 149.105679, -35.284171, 558.2 ], [ 149.105822, -35.284221, 558.6 ], [ 149.105977, -35.284265, 557.8 ], [ 149.10614, -35.284253, 557.8 ], [ 149.10642, -35.284187, 557.4 ], [ 149.106485, -35.284163, 557.8 ], [ 149.10655, -35.284148, 558.0 ], [ 149.106676, -35.284123, 559.0 ], [ 149.106743, -35.284111, 560.6 ], [ 149.106872, -35.284082, 560.2 ], [ 149.107078, -35.28404, 559.6 ], [ 149.107367, -35.283975, 560.8 ], [ 149.107441, -35.283957, 561.2 ], [ 149.107691, -35.283906, 561.0 ], [ 149.107854, -35.283904, 558.4 ], [ 149.107934, -35.283916, 557.2 ], [ 149.108095, -35.283935, 559.0 ], [ 149.108181, -35.283947, 560.8 ], [ 149.108258, -35.283952, 562.8 ], [ 149.108337, -35.283958, 563.8 ], [ 149.108568, -35.283979, 560.0 ], [ 149.10865, -35.283983, 558.8 ], [ 149.108726, -35.283991, 557.6 ], [ 149.1088, -35.283999, 557.6 ], [ 149.109201, -35.284001, 560.8 ], [ 149.109267, -35.284, 562.6 ], [ 149.109518, -35.28399, 564.0 ], [ 149.109567, -35.283985, 564.8 ], [ 149.109614, -35.283981, 566.8 ], [ 149.109664, -35.283985, 568.0 ], [ 149.109755, -35.284011, 569.2 ], [ 149.109801, -35.284031, 569.8 ], [ 149.10999, -35.284129, 565.6 ], [ 149.11004, -35.284158, 563.6 ], [ 149.11009, -35.284183, 560.8 ], [ 149.110194, -35.284237, 559.6 ], [ 149.110248, -35.284265, 558.4 ], [ 149.110454, -35.284381, 559.4 ], [ 149.110508, -35.284407, 560.6 ], [ 149.110612, -35.284463, 565.2 ], [ 149.110656, -35.284498, 567.6 ], [ 149.110827, -35.284656, 567.6 ], [ 149.110871, -35.2847, 566.0 ], [ 149.111008, -35.28483, 563.0 ], [ 149.111089, -35.284905, 560.8 ], [ 149.111135, -35.284977, 559.4 ], [ 149.111098, -35.28497, 558.0 ], [ 149.111076, -35.28496, 558.0 ], [ 149.110882, -35.284861, 557.6 ], [ 149.110681, -35.284745, 559.6 ], [ 149.11052, -35.284668, 559.2 ], [ 149.110419, -35.284602, 558.6 ], [ 149.110378, -35.284559, 558.2 ], [ 149.110359, -35.284506, 558.0 ], [ 149.110401, -35.284402, 557.6 ], [ 149.11059, -35.28418, 561.2 ], [ 149.110668, -35.284087, 562.6 ], [ 149.110713, -35.284047, 560.6 ], [ 149.110788, -35.283955, 559.2 ], [ 149.11083, -35.283901, 559.2 ], [ 149.11096, -35.283752, 559.0 ], [ 149.111051, -35.283675, 560.2 ], [ 149.111193, -35.28356, 561.4 ], [ 149.111276, -35.283463, 560.6 ], [ 149.111297, -35.283402, 560.4 ], [ 149.111305, -35.283338, 560.4 ], [ 149.111278, -35.283154, 560.6 ], [ 149.111288, -35.283095, 560.6 ], [ 149.111357, -35.282987, 562.0 ], [ 149.111401, -35.282935, 562.8 ], [ 149.111445, -35.282886, 558.4 ], [ 149.111537, -35.282786, 555.8 ], [ 149.111582, -35.282735, 555.6 ], [ 149.111627, -35.282684, 554.6 ], [ 149.111719, -35.282584, 556.6 ], [ 149.111811, -35.282488, 557.8 ], [ 149.111906, -35.282393, 559.6 ], [ 149.112047, -35.282254, 557.8 ], [ 149.112093, -35.282207, 556.6 ], [ 149.112143, -35.282161, 555.2 ], [ 149.11219, -35.282115, 553.8 ], [ 149.112236, -35.282067, 551.8 ], [ 149.112384, -35.281931, 552.0 ], [ 149.112494, -35.28184, 552.8 ], [ 149.112546, -35.28179, 554.6 ], [ 149.112603, -35.281746, 557.8 ], [ 149.112667, -35.28171, 559.4 ], [ 149.112728, -35.281672, 559.8 ], [ 149.112856, -35.281605, 561.0 ], [ 149.112921, -35.281575, 561.6 ], [ 149.113114, -35.281471, 558.2 ], [ 149.11318, -35.281442, 559.0 ], [ 149.113248, -35.281412, 560.6 ], [ 149.113434, -35.281328, 561.0 ], [ 149.113559, -35.281263, 560.4 ], [ 149.113693, -35.281219, 559.2 ], [ 149.113759, -35.281197, 559.2 ], [ 149.114206, -35.281022, 559.6 ], [ 149.114377, -35.28091, 558.4 ], [ 149.114543, -35.280806, 560.0 ], [ 149.114578, -35.280777, 560.8 ], [ 149.114619, -35.28072, 561.4 ], [ 149.114669, -35.280686, 562.2 ], [ 149.114731, -35.280657, 563.6 ], [ 149.114781, -35.280616, 562.8 ], [ 149.114816, -35.2806, 561.4 ], [ 149.114892, -35.280561, 560.2 ], [ 149.114929, -35.280534, 560.0 ], [ 149.115094, -35.280416, 561.4 ], [ 149.115228, -35.280327, 562.8 ], [ 149.115325, -35.280273, 563.4 ], [ 149.115533, -35.28015, 561.0 ], [ 149.115591, -35.280125, 559.2 ], [ 149.115716, -35.280076, 557.2 ], [ 149.115847, -35.280031, 558.4 ], [ 149.115991, -35.279986, 559.6 ], [ 149.116051, -35.279962, 562.6 ], [ 149.116116, -35.279943, 562.8 ], [ 149.116251, -35.279925, 562.6 ], [ 149.116389, -35.279928, 561.0 ], [ 149.116457, -35.279937, 561.2 ], [ 149.116598, -35.279949, 561.8 ], [ 149.116668, -35.279955, 562.6 ], [ 149.117045, -35.280013, 562.2 ], [ 149.117235, -35.280028, 563.6 ], [ 149.117294, -35.280012, 563.8 ], [ 149.11736, -35.280002, 563.8 ], [ 149.11764, -35.279956, 563.0 ], [ 149.117851, -35.279918, 562.6 ], [ 149.117917, -35.279895, 563.2 ], [ 149.117972, -35.279861, 563.4 ], [ 149.118026, -35.279826, 563.0 ], [ 149.11814, -35.279747, 561.2 ], [ 149.118195, -35.279704, 559.6 ], [ 149.118246, -35.27966, 558.4 ], [ 149.118343, -35.279563, 559.2 ], [ 149.118391, -35.279514, 559.8 ], [ 149.118567, -35.27931, 558.6 ], [ 149.118645, -35.279215, 558.0 ], [ 149.118664, -35.279173, 559.0 ], [ 149.118692, -35.279084, 559.6 ], [ 149.118709, -35.279, 561.4 ], [ 149.118716, -35.278962, 563.2 ], [ 149.118745, -35.278796, 564.6 ], [ 149.118758, -35.278732, 564.4 ], [ 149.118763, -35.278669, 561.4 ], [ 149.118771, -35.278611, 560.2 ], [ 149.118761, -35.278549, 560.0 ], [ 149.118757, -35.278482, 557.4 ], [ 149.118763, -35.278416, 557.6 ], [ 149.118796, -35.278293, 557.0 ], [ 149.118861, -35.278184, 556.0 ], [ 149.118971, -35.278027, 558.2 ], [ 149.119069, -35.277885, 560.0 ], [ 149.119176, -35.277755, 561.8 ], [ 149.11927, -35.2777, 562.4 ], [ 149.119503, -35.277536, 560.4 ], [ 149.119595, -35.277468, 560.2 ], [ 149.119646, -35.277441, 560.4 ], [ 149.119802, -35.277384, 560.0 ], [ 149.119853, -35.277368, 559.6 ], [ 149.119905, -35.277351, 559.4 ], [ 149.120054, -35.277318, 558.4 ], [ 149.120153, -35.277322, 558.4 ], [ 149.120256, -35.277304, 559.2 ], [ 149.120304, -35.277279, 560.0 ], [ 149.120353, -35.277247, 560.4 ], [ 149.120531, -35.27713, 558.4 ], [ 149.120557, -35.277091, 559.6 ], [ 149.120557, -35.277051, 560.6 ], [ 149.120501, -35.276991, 561.8 ], [ 149.120465, -35.276969, 561.6 ], [ 149.120291, -35.27688, 562.4 ], [ 149.120264, -35.276849, 563.4 ], [ 149.120257, -35.276808, 563.6 ], [ 149.120289, -35.276732, 562.6 ], [ 149.120306, -35.276698, 562.2 ], [ 149.120348, -35.276587, 560.4 ], [ 149.120393, -35.276528, 561.4 ], [ 149.120421, -35.276495, 562.2 ], [ 149.12049, -35.276425, 562.4 ], [ 149.120575, -35.276363, 564.0 ], [ 149.120666, -35.276289, 566.0 ], [ 149.120712, -35.276246, 567.0 ], [ 149.120792, -35.276157, 568.0 ], [ 149.120821, -35.27611, 568.0 ], [ 149.120926, -35.275967, 567.4 ], [ 149.120968, -35.275919, 567.0 ], [ 149.121011, -35.27587, 566.6 ], [ 149.121053, -35.275824, 565.0 ], [ 149.121252, -35.275589, 564.4 ], [ 149.121231, -35.275473, 565.0 ], [ 149.121211, -35.275419, 565.2 ], [ 149.121119, -35.27514, 564.0 ], [ 149.121069, -35.274958, 563.0 ], [ 149.121025, -35.274778, 566.2 ], [ 149.121023, -35.274715, 568.6 ], [ 149.12103, -35.274655, 570.8 ], [ 149.121038, -35.274597, 570.6 ], [ 149.121054, -35.274541, 570.6 ], [ 149.121116, -35.274438, 570.4 ], [ 149.121158, -35.27439, 570.2 ], [ 149.121206, -35.27435, 570.4 ], [ 149.121304, -35.274264, 570.0 ], [ 149.121363, -35.274218, 569.2 ], [ 149.121411, -35.274177, 568.6 ], [ 149.121452, -35.274135, 566.6 ], [ 149.121534, -35.274049, 565.6 ], [ 149.12165, -35.273921, 563.8 ], [ 149.121686, -35.273882, 563.2 ], [ 149.121759, -35.273802, 564.4 ], [ 149.121855, -35.273708, 564.8 ], [ 149.121858, -35.273679, 564.8 ], [ 149.121861, -35.273633, 562.8 ], [ 149.121887, -35.273608, 561.0 ], [ 149.121887, -35.273608, 559.6 ], [ 149.121878, -35.273606, 559.6 ], [ 149.121879, -35.273598, 561.2 ], [ 149.121879, -35.273597, 561.8 ], [ 149.121879, -35.273597, 563.4 ], [ 149.121891, -35.27358, 564.2 ], [ 149.121923, -35.273536, 565.8 ], [ 149.12196, -35.273483, 567.4 ], [ 149.121983, -35.273458, 568.2 ], [ 149.122052, -35.273365, 567.8 ], [ 149.12217, -35.273307, 568.6 ], [ 149.122214, -35.273293, 570.2 ], [ 149.122236, -35.273264, 570.8 ], [ 149.122252, -35.273227, 571.6 ], [ 149.122272, -35.273192, 572.4 ], [ 149.122302, -35.273157, 573.0 ], [ 149.122339, -35.273125, 574.4 ], [ 149.122374, -35.273094, 575.4 ], [ 149.122404, -35.273059, 574.8 ], [ 149.12247, -35.272981, 573.8 ], [ 149.122494, -35.272942, 571.8 ], [ 149.122523, -35.272898, 567.8 ], [ 149.122591, -35.272808, 567.6 ], [ 149.122727, -35.272634, 570.6 ], [ 149.122771, -35.272598, 570.2 ], [ 149.122863, -35.272521, 569.4 ], [ 149.122955, -35.272425, 567.2 ], [ 149.122994, -35.272299, 565.0 ], [ 149.123025, -35.27224, 564.4 ], [ 149.123089, -35.272137, 563.2 ], [ 149.123103, -35.272081, 564.0 ], [ 149.123119, -35.271905, 563.8 ], [ 149.123121, -35.271843, 564.4 ], [ 149.123119, -35.271773, 565.8 ], [ 149.12312, -35.271708, 566.8 ], [ 149.123132, -35.271647, 569.6 ], [ 149.123193, -35.271484, 571.4 ], [ 149.123197, -35.271422, 569.8 ], [ 149.123195, -35.271358, 567.4 ], [ 149.123204, -35.271287, 566.0 ], [ 149.123219, -35.271222, 566.4 ], [ 149.123269, -35.2711, 567.4 ], [ 149.123282, -35.27103, 569.2 ], [ 149.123315, -35.27077, 566.6 ], [ 149.123321, -35.270708, 566.0 ], [ 149.123321, -35.270582, 564.4 ], [ 149.123332, -35.27045, 565.6 ], [ 149.123357, -35.270392, 566.2 ], [ 149.123374, -35.270334, 566.8 ], [ 149.123411, -35.27015, 565.4 ], [ 149.123423, -35.270023, 565.6 ], [ 149.123461, -35.269906, 566.2 ], [ 149.123547, -35.269813, 566.8 ], [ 149.123683, -35.269689, 567.6 ], [ 149.12372, -35.26959, 568.2 ], [ 149.123718, -35.269503, 569.4 ], [ 149.123688, -35.269469, 569.4 ], [ 149.12365, -35.269434, 569.6 ], [ 149.123583, -35.269354, 568.8 ], [ 149.123551, -35.269245, 568.8 ], [ 149.123559, -35.269117, 570.8 ], [ 149.123581, -35.26894, 570.8 ], [ 149.123612, -35.268692, 570.4 ], [ 149.123633, -35.268514, 571.2 ], [ 149.123697, -35.268147, 571.0 ], [ 149.123718, -35.268023, 571.0 ], [ 149.123736, -35.267903, 567.2 ], [ 149.123759, -35.267782, 565.8 ], [ 149.123801, -35.26755, 566.2 ], [ 149.123836, -35.267366, 566.8 ], [ 149.123851, -35.267247, 567.2 ], [ 149.123868, -35.267118, 567.6 ], [ 149.123885, -35.267054, 568.0 ], [ 149.123908, -35.266995, 568.2 ], [ 149.12395, -35.26694, 568.6 ], [ 149.123988, -35.26689, 568.4 ], [ 149.124035, -35.266848, 567.2 ], [ 149.124194, -35.266678, 568.2 ], [ 149.124293, -35.266632, 568.8 ], [ 149.124393, -35.266591, 568.2 ], [ 149.124503, -35.26655, 568.0 ], [ 149.124551, -35.266535, 567.8 ], [ 149.124581, -35.266509, 568.0 ], [ 149.124602, -35.266467, 569.2 ], [ 149.124592, -35.266438, 570.8 ], [ 149.124544, -35.266378, 574.2 ], [ 149.12447, -35.266264, 573.8 ], [ 149.124426, -35.266225, 573.6 ], [ 149.124377, -35.266188, 569.2 ], [ 149.124318, -35.266156, 567.8 ], [ 149.124183, -35.266093, 566.8 ], [ 149.124123, -35.26605, 566.4 ], [ 149.124066, -35.265998, 565.8 ], [ 149.124017, -35.26594, 564.8 ], [ 149.123977, -35.265887, 565.0 ], [ 149.123921, -35.265771, 566.2 ], [ 149.123906, -35.265714, 566.2 ], [ 149.123896, -35.265655, 566.6 ], [ 149.12388, -35.26553, 566.8 ], [ 149.123882, -35.265467, 566.6 ], [ 149.123904, -35.265333, 566.2 ], [ 149.123972, -35.265156, 566.4 ], [ 149.124026, -35.265046, 567.2 ], [ 149.124185, -35.264767, 567.8 ], [ 149.124274, -35.264665, 567.6 ], [ 149.124591, -35.26443, 567.0 ], [ 149.12473, -35.264295, 567.8 ], [ 149.124855, -35.264157, 567.2 ], [ 149.124908, -35.264119, 567.4 ], [ 149.125074, -35.26403, 567.8 ], [ 149.125131, -35.26401, 567.8 ], [ 149.12519, -35.263989, 568.6 ], [ 149.125296, -35.263933, 567.8 ], [ 149.125339, -35.263894, 567.6 ], [ 149.125375, -35.263846, 567.4 ], [ 149.125384, -35.263754, 567.6 ], [ 149.125362, -35.263717, 568.6 ], [ 149.125337, -35.263675, 570.6 ], [ 149.125294, -35.263592, 573.2 ], [ 149.12531, -35.263498, 574.4 ], [ 149.12533, -35.263451, 573.4 ], [ 149.125394, -35.263231, 571.2 ], [ 149.125404, -35.263115, 569.8 ], [ 149.125401, -35.262938, 569.0 ], [ 149.125399, -35.26288, 568.6 ], [ 149.125405, -35.262818, 568.8 ], [ 149.125431, -35.262688, 569.4 ], [ 149.12545, -35.262628, 570.2 ], [ 149.125492, -35.262501, 571.2 ], [ 149.125554, -35.262385, 572.2 ], [ 149.125645, -35.262286, 573.6 ], [ 149.125694, -35.262246, 572.4 ], [ 149.125933, -35.262026, 570.8 ], [ 149.126025, -35.261935, 569.0 ], [ 149.126074, -35.261886, 568.8 ], [ 149.126444, -35.261542, 568.4 ], [ 149.126565, -35.261452, 568.8 ], [ 149.126748, -35.26132, 568.8 ], [ 149.126962, -35.261129, 570.0 ], [ 149.127015, -35.261084, 570.2 ], [ 149.127117, -35.260995, 571.0 ], [ 149.127163, -35.26095, 571.4 ], [ 149.127351, -35.260775, 569.2 ], [ 149.127437, -35.260698, 567.6 ], [ 149.127481, -35.260662, 567.4 ], [ 149.127521, -35.260624, 566.2 ], [ 149.127688, -35.260459, 565.8 ], [ 149.127706, -35.260421, 566.4 ], [ 149.127722, -35.260383, 568.2 ], [ 149.127733, -35.260341, 569.0 ], [ 149.127898, -35.259992, 577.0 ], [ 149.127897, -35.259969, 577.2 ], [ 149.127878, -35.259953, 577.0 ], [ 149.127848, -35.259951, 576.4 ], [ 149.127815, -35.259946, 576.0 ], [ 149.127774, -35.259939, 575.6 ], [ 149.127733, -35.259932, 575.2 ], [ 149.127684, -35.259928, 574.2 ], [ 149.127635, -35.259925, 574.6 ], [ 149.127583, -35.25992, 574.2 ], [ 149.127474, -35.259912, 573.2 ], [ 149.12742, -35.259897, 572.8 ], [ 149.127376, -35.259878, 570.2 ], [ 149.127329, -35.259861, 569.8 ], [ 149.12728, -35.259827, 567.8 ], [ 149.127223, -35.259718, 567.2 ], [ 149.127221, -35.259661, 566.6 ], [ 149.127229, -35.259604, 566.6 ], [ 149.127226, -35.259481, 566.0 ], [ 149.127239, -35.259093, 567.0 ], [ 149.127261, -35.258837, 569.6 ], [ 149.127265, -35.258769, 572.4 ], [ 149.127257, -35.258705, 575.0 ], [ 149.127238, -35.25864, 578.8 ], [ 149.12717, -35.258452, 577.6 ], [ 149.127154, -35.258392, 576.4 ], [ 149.127134, -35.258331, 575.6 ], [ 149.127109, -35.258269, 575.6 ], [ 149.126989, -35.258208, 575.4 ], [ 149.126846, -35.258229, 574.8 ], [ 149.126777, -35.258252, 575.0 ], [ 149.126577, -35.258336, 576.0 ], [ 149.126509, -35.258365, 576.2 ], [ 149.126293, -35.258457, 576.0 ], [ 149.126158, -35.258522, 575.8 ], [ 149.125948, -35.258613, 575.4 ], [ 149.125876, -35.258644, 572.8 ], [ 149.125741, -35.258711, 572.4 ], [ 149.125516, -35.258806, 571.8 ], [ 149.125312, -35.258898, 571.4 ], [ 149.125236, -35.25892, 570.4 ], [ 149.125157, -35.258938, 568.0 ], [ 149.125079, -35.258949, 568.4 ], [ 149.125004, -35.258954, 568.0 ], [ 149.124931, -35.258959, 568.8 ], [ 149.12486, -35.258957, 569.4 ], [ 149.124723, -35.258929, 570.4 ], [ 149.124647, -35.258916, 571.0 ], [ 149.124371, -35.258886, 573.4 ], [ 149.124238, -35.258863, 572.6 ], [ 149.124044, -35.258849, 572.2 ], [ 149.123982, -35.258864, 573.8 ], [ 149.123921, -35.258888, 575.2 ], [ 149.123856, -35.258901, 576.4 ], [ 149.123723, -35.25888, 578.6 ], [ 149.123552, -35.258796, 578.4 ], [ 149.123487, -35.258786, 577.8 ], [ 149.123421, -35.258776, 576.4 ], [ 149.123278, -35.258758, 574.0 ], [ 149.122927, -35.258723, 574.2 ], [ 149.122861, -35.258709, 572.6 ], [ 149.122794, -35.258687, 569.6 ], [ 149.122671, -35.258624, 569.4 ], [ 149.122613, -35.258583, 569.8 ], [ 149.122504, -35.258496, 571.2 ], [ 149.122348, -35.258368, 571.2 ], [ 149.12225, -35.258286, 571.2 ], [ 149.122052, -35.258134, 572.6 ], [ 149.121929, -35.258072, 573.0 ], [ 149.121462, -35.257838, 574.0 ], [ 149.121236, -35.257708, 575.0 ], [ 149.120954, -35.257539, 575.0 ], [ 149.120712, -35.257424, 574.4 ], [ 149.120574, -35.257391, 574.4 ], [ 149.12043, -35.25739, 574.6 ], [ 149.120294, -35.257413, 575.0 ], [ 149.120094, -35.257449, 576.2 ], [ 149.119824, -35.257482, 577.2 ], [ 149.119752, -35.257484, 576.6 ], [ 149.119681, -35.257486, 576.0 ], [ 149.11961, -35.257487, 575.0 ], [ 149.119538, -35.257488, 573.2 ], [ 149.119194, -35.257509, 575.6 ], [ 149.118948, -35.257582, 577.2 ], [ 149.118831, -35.257614, 577.0 ], [ 149.118766, -35.257625, 576.6 ], [ 149.11864, -35.257625, 575.8 ], [ 149.118578, -35.257613, 575.0 ], [ 149.11852, -35.257595, 575.4 ], [ 149.1184, -35.257563, 576.6 ], [ 149.118331, -35.257565, 577.0 ], [ 149.118268, -35.257568, 577.4 ], [ 149.118137, -35.257572, 578.2 ], [ 149.117891, -35.257571, 577.8 ], [ 149.117764, -35.257563, 577.0 ], [ 149.117629, -35.257569, 577.4 ], [ 149.117489, -35.257575, 577.6 ], [ 149.117283, -35.257573, 578.2 ], [ 149.117218, -35.257582, 578.4 ], [ 149.117159, -35.257599, 579.2 ], [ 149.1171, -35.25762, 579.8 ], [ 149.117046, -35.257642, 580.4 ], [ 149.116816, -35.257717, 581.8 ], [ 149.1167, -35.257754, 582.4 ], [ 149.116585, -35.257785, 583.0 ], [ 149.116402, -35.257814, 582.6 ], [ 149.116215, -35.257865, 582.2 ], [ 149.1161, -35.25793, 581.4 ], [ 149.115995, -35.257996, 580.4 ], [ 149.115868, -35.258108, 581.8 ], [ 149.115789, -35.258191, 582.0 ], [ 149.115657, -35.2583, 582.6 ], [ 149.115558, -35.25835, 583.0 ], [ 149.115466, -35.258376, 584.4 ], [ 149.11537, -35.258375, 584.4 ], [ 149.115276, -35.258371, 585.8 ], [ 149.115185, -35.258381, 588.0 ], [ 149.115141, -35.258394, 588.0 ], [ 149.114974, -35.258449, 587.8 ], [ 149.114861, -35.258488, 584.8 ], [ 149.1148, -35.258506, 584.0 ], [ 149.114743, -35.258529, 583.2 ], [ 149.114407, -35.258663, 584.4 ], [ 149.114354, -35.258682, 585.0 ], [ 149.114303, -35.258703, 585.6 ], [ 149.114087, -35.258765, 586.4 ], [ 149.114026, -35.258776, 587.2 ], [ 149.113969, -35.258784, 588.0 ], [ 149.11371, -35.258806, 587.6 ], [ 149.113587, -35.258811, 586.2 ], [ 149.113421, -35.258825, 585.4 ], [ 149.11331, -35.258849, 587.6 ], [ 149.113254, -35.25886, 589.6 ], [ 149.113138, -35.258879, 590.6 ], [ 149.113086, -35.258904, 591.0 ], [ 149.11293, -35.258974, 591.8 ], [ 149.112828, -35.258985, 592.0 ], [ 149.112695, -35.258984, 593.0 ], [ 149.112597, -35.258976, 592.6 ], [ 149.112553, -35.258959, 592.4 ], [ 149.112474, -35.258911, 592.0 ], [ 149.112439, -35.258881, 591.8 ], [ 149.1124, -35.258854, 591.8 ], [ 149.112309, -35.258806, 591.8 ], [ 149.112166, -35.258738, 591.8 ], [ 149.112071, -35.258695, 593.0 ], [ 149.112016, -35.258684, 593.2 ], [ 149.111909, -35.258669, 593.8 ], [ 149.111852, -35.258657, 594.4 ], [ 149.1118, -35.258639, 594.6 ], [ 149.111623, -35.258609, 594.0 ], [ 149.11156, -35.258606, 593.8 ], [ 149.111494, -35.258607, 593.0 ], [ 149.11131, -35.258627, 594.4 ], [ 149.111252, -35.258625, 594.6 ], [ 149.110912, -35.258565, 595.2 ], [ 149.110498, -35.258458, 593.0 ], [ 149.110172, -35.258355, 593.2 ], [ 149.110134, -35.258341, 593.8 ], [ 149.110093, -35.258326, 594.2 ], [ 149.109936, -35.258301, 598.4 ], [ 149.10974, -35.258353, 598.2 ], [ 149.109643, -35.25836, 600.8 ], [ 149.109609, -35.258283, 601.2 ], [ 149.109604, -35.258239, 602.2 ], [ 149.109595, -35.258107, 600.6 ], [ 149.109579, -35.258031, 599.4 ], [ 149.109521, -35.257754, 600.8 ], [ 149.109524, -35.257669, 602.4 ], [ 149.109528, -35.257602, 603.4 ], [ 149.109531, -35.257568, 604.0 ], [ 149.109543, -35.257501, 604.6 ], [ 149.109586, -35.257373, 603.0 ], [ 149.109597, -35.257345, 602.4 ], [ 149.109624, -35.257278, 601.8 ], [ 149.109644, -35.257218, 603.0 ], [ 149.109661, -35.257151, 604.2 ], [ 149.109641, -35.257084, 605.4 ], [ 149.109602, -35.257028, 606.6 ], [ 149.109509, -35.25689, 606.4 ], [ 149.109493, -35.256852, 606.2 ], [ 149.109486, -35.256764, 605.8 ], [ 149.1095, -35.256722, 605.6 ], [ 149.109634, -35.25646, 605.6 ], [ 149.109705, -35.256359, 606.6 ], [ 149.109861, -35.256169, 604.8 ], [ 149.109884, -35.256138, 604.4 ], [ 149.109986, -35.256007, 606.0 ], [ 149.110009, -35.255969, 606.4 ], [ 149.110035, -35.255924, 607.6 ], [ 149.110051, -35.255883, 608.4 ], [ 149.110057, -35.255802, 609.4 ], [ 149.110061, -35.255645, 606.0 ], [ 149.110004, -35.255582, 606.6 ], [ 149.109848, -35.255475, 608.2 ], [ 149.10972, -35.255399, 608.6 ], [ 149.109546, -35.255263, 609.0 ], [ 149.109514, -35.25524, 609.2 ], [ 149.109419, -35.255157, 609.4 ], [ 149.109333, -35.255053, 610.8 ], [ 149.109303, -35.25502, 611.2 ], [ 149.109226, -35.254922, 612.2 ], [ 149.109173, -35.254864, 613.6 ], [ 149.109104, -35.254773, 614.6 ], [ 149.10903, -35.254664, 614.2 ], [ 149.108942, -35.254529, 613.0 ], [ 149.108934, -35.254513, 613.0 ], [ 149.108919, -35.254497, 615.6 ], [ 149.108914, -35.254476, 617.0 ], [ 149.108884, -35.254427, 617.4 ], [ 149.108859, -35.254371, 617.6 ], [ 149.10879, -35.254204, 617.4 ], [ 149.108713, -35.253995, 617.0 ], [ 149.108631, -35.253802, 617.8 ], [ 149.108611, -35.253761, 617.8 ], [ 149.108458, -35.253424, 617.8 ], [ 149.108444, -35.253378, 618.0 ], [ 149.108353, -35.253173, 619.0 ], [ 149.108336, -35.253131, 619.2 ], [ 149.108229, -35.252885, 620.4 ], [ 149.108112, -35.252709, 621.6 ], [ 149.108085, -35.252675, 621.8 ], [ 149.107861, -35.252372, 620.4 ], [ 149.107828, -35.252336, 620.2 ], [ 149.107714, -35.252241, 619.2 ], [ 149.107555, -35.252112, 619.4 ], [ 149.107473, -35.252048, 621.6 ], [ 149.10732, -35.251911, 621.2 ], [ 149.107087, -35.251735, 622.6 ], [ 149.107041, -35.251717, 622.4 ], [ 149.10683, -35.251626, 624.0 ], [ 149.106783, -35.251557, 625.4 ], [ 149.106717, -35.251482, 626.6 ], [ 149.106696, -35.25144, 626.4 ], [ 149.106671, -35.251401, 625.2 ], [ 149.106631, -35.251332, 624.2 ], [ 149.106558, -35.251216, 624.0 ], [ 149.106493, -35.251179, 624.2 ], [ 149.106384, -35.251075, 625.2 ], [ 149.106328, -35.251046, 625.2 ], [ 149.106213, -35.251013, 625.2 ], [ 149.1061, -35.251022, 625.4 ], [ 149.106, -35.251054, 626.4 ], [ 149.105892, -35.251078, 627.8 ], [ 149.10583, -35.251084, 629.0 ], [ 149.105769, -35.251083, 629.2 ], [ 149.105573, -35.251063, 627.6 ], [ 149.105374, -35.251033, 624.6 ], [ 149.105307, -35.25102, 623.8 ], [ 149.105239, -35.251009, 623.2 ], [ 149.105036, -35.250972, 622.2 ], [ 149.104973, -35.250948, 623.8 ], [ 149.104871, -35.250881, 627.2 ], [ 149.10483, -35.250839, 629.0 ], [ 149.104804, -35.25079, 630.0 ], [ 149.10479, -35.250738, 630.8 ], [ 149.104792, -35.250674, 629.0 ], [ 149.104796, -35.25061, 625.8 ], [ 149.104802, -35.250543, 621.4 ], [ 149.104809, -35.250473, 620.4 ], [ 149.104821, -35.2504, 619.2 ], [ 149.104842, -35.250258, 618.0 ], [ 149.104877, -35.250037, 618.8 ], [ 149.104905, -35.249888, 619.0 ], [ 149.104941, -35.249664, 618.2 ], [ 149.105, -35.249454, 618.2 ], [ 149.105035, -35.249278, 616.6 ], [ 149.105022, -35.249231, 616.4 ], [ 149.104983, -35.249195, 616.2 ], [ 149.104927, -35.249178, 616.8 ], [ 149.104866, -35.249165, 619.0 ], [ 149.104737, -35.24914, 620.2 ], [ 149.10462, -35.249095, 619.8 ], [ 149.104562, -35.249065, 619.2 ], [ 149.104505, -35.249032, 618.8 ], [ 149.104452, -35.248995, 618.2 ], [ 149.104303, -35.248872, 617.6 ], [ 149.104255, -35.248829, 618.2 ], [ 149.104202, -35.248792, 618.8 ], [ 149.104085, -35.248726, 620.2 ], [ 149.104028, -35.248695, 621.4 ], [ 149.103911, -35.248642, 622.8 ], [ 149.103612, -35.248516, 622.6 ], [ 149.103433, -35.248455, 623.8 ], [ 149.103382, -35.248424, 624.8 ], [ 149.103334, -35.24839, 625.8 ], [ 149.103197, -35.248272, 625.0 ], [ 149.103149, -35.248231, 624.2 ], [ 149.102993, -35.248115, 623.2 ], [ 149.102783, -35.247989, 621.8 ], [ 149.10266, -35.247939, 620.6 ], [ 149.102456, -35.247894, 621.0 ], [ 149.102306, -35.247904, 621.2 ], [ 149.102161, -35.247944, 621.4 ], [ 149.102036, -35.248003, 621.6 ], [ 149.10193, -35.248081, 621.8 ], [ 149.101881, -35.248122, 621.8 ], [ 149.101836, -35.248164, 623.8 ], [ 149.10176, -35.248254, 625.8 ], [ 149.101689, -35.248347, 624.8 ], [ 149.101599, -35.248486, 623.2 ], [ 149.10153, -35.248569, 622.6 ], [ 149.101445, -35.248626, 623.4 ], [ 149.101354, -35.24862, 625.4 ], [ 149.101318, -35.2486, 627.0 ], [ 149.101187, -35.248477, 627.0 ], [ 149.101048, -35.248394, 626.4 ], [ 149.100959, -35.248346, 626.8 ], [ 149.100816, -35.248275, 625.4 ], [ 149.100606, -35.248181, 626.2 ], [ 149.100425, -35.248082, 623.8 ], [ 149.100367, -35.248041, 623.0 ], [ 149.10033, -35.247996, 622.6 ], [ 149.100316, -35.247948, 621.6 ], [ 149.100323, -35.24785, 621.8 ], [ 149.100315, -35.247805, 621.4 ], [ 149.100344, -35.247725, 621.0 ], [ 149.100373, -35.247694, 620.8 ], [ 149.100404, -35.247659, 620.4 ], [ 149.100461, -35.247587, 618.0 ], [ 149.100492, -35.247549, 617.4 ], [ 149.100556, -35.24747, 616.4 ], [ 149.100625, -35.247385, 617.0 ], [ 149.100693, -35.247298, 617.6 ], [ 149.100716, -35.247249, 618.2 ], [ 149.10072, -35.247144, 618.4 ], [ 149.100742, -35.246979, 618.4 ], [ 149.100798, -35.246876, 619.6 ], [ 149.100866, -35.246777, 620.6 ], [ 149.100947, -35.246691, 620.0 ], [ 149.101006, -35.246666, 619.8 ], [ 149.101073, -35.246652, 619.2 ], [ 149.101207, -35.24664, 618.6 ], [ 149.101275, -35.246643, 618.2 ], [ 149.101387, -35.24664, 617.0 ], [ 149.101442, -35.246639, 616.4 ], [ 149.101539, -35.246645, 615.8 ], [ 149.101635, -35.246646, 613.8 ], [ 149.101683, -35.246654, 613.6 ], [ 149.101731, -35.246674, 613.6 ], [ 149.101756, -35.246706, 613.4 ], [ 149.101796, -35.24677, 613.8 ], [ 149.101895, -35.246909, 613.8 ], [ 149.101971, -35.246872, 614.4 ], [ 149.10202, -35.24679, 613.8 ], [ 149.102028, -35.246783, 615.0 ], [ 149.102029, -35.246783, 616.4 ] ] ] } }
]
}
